{"version": 0.6, "generator": "Overpass API 0.7.62.8 e802775f", "osm3s": {"timestamp_osm_base": "2025-11-18T10:44:35Z", "copyright": "The data included in this document is from www.openstreetmap.org. The data is made available under ODbL."}, "elements": [{"type": "node", "id": 277872133, "lat": 36.3532721, "lon": 127.3795674}, {"type": "node", "id": 315747410, "lat": 36.3500461, "lon": 127.377101, "tags": {"amenity": "restaurant", "name": "Bennigan\u00b4s Steakhouse"}}, {"type": "node", "id": 318917841, "lat": 36.3489814, "lon": 127.3829414}, {"type": "node", "id": 318917853, "lat": 36.3489743, "lon": 127.3805448, "tags": {"highway": "traffic_signals", "traffic_signals": "traffic_lights", "traffic_signals:direction": "forward"}}, {"type": "node", "id": 318917856, "lat": 36.3488782, "lon": 127.3803303}, {"type": "node", "id": 318917858, "lat": 36.3476401, "lon": 127.3778303}, {"type": "node", "id": 318917887, "lat": 36.3558164, "lon": 127.3803569}, {"type": "node", "id": 318917889, "lat": 36.3558494, "lon": 127.3775048}, {"type": "node", "id": 318917891, "lat": 36.3558497, "lon": 127.3766208, "tags": {"name": "\ub454\uc9c0\ubbf8\uc0ac\uac70\ub9ac", "name:en": "Dunjimi Crossroad", "name:ko": "\ub454\uc9c0\ubbf8\uc0ac\uac70\ub9ac", "name:ko-Latn": "Dunjimisageori", "ncat": "\uad50\ucc28\ub85c\ubc0f\uc9c0\uba85", "source": "mp2osm"}}, {"type": "node", "id": 318917900, "lat": 36.3513319, "lon": 127.3820139}, {"type": "node", "id": 318917902, "lat": 36.3513312, "lon": 127.3795202}, {"type": "node", "id": 318917903, "lat": 36.3515251, "lon": 127.3785557}, {"type": "node", "id": 318917906, "lat": 36.3516908, "lon": 127.3774833}, {"type": "node", "id": 318917907, "lat": 36.3520087, "lon": 127.3766005}, {"type": "node", "id": 318918018, "lat": 36.3520885, "lon": 127.3829589}, {"type": "node", "id": 318918034, "lat": 36.3535904, "lon": 127.3803562}, {"type": "node", "id": 318918092, "lat": 36.3520911, "lon": 127.3819911}, {"type": "node", "id": 318918095, "lat": 36.3531886, "lon": 127.380345}, {"type": "node", "id": 318918101, "lat": 36.352424, "lon": 127.3801502}, {"type": "node", "id": 318918103, "lat": 36.3520914, "lon": 127.3799826}, {"type": "node", "id": 318918106, "lat": 36.3516133, "lon": 127.379688}, {"type": "node", "id": 318918115, "lat": 36.3523255, "lon": 127.3792574}, {"type": "node", "id": 368634893, "lat": 36.35222, "lon": 127.378494, "tags": {"amenity": "cinema", "name": "\uac24\ub7ec\ub9ac\uc544 \uc2dc\ub124\ub9c8", "name:en": "Galleria Cinema", "name:ko": "\uac24\ub7ec\ub9ac\uc544 \uc2dc\ub124\ub9c8", "name:ko-Latn": "Gaelleoria Sinema", "ncat": "\uadf9\uc7a5", "source": "http://kr.open.gugi.yahoo.com"}}, {"type": "node", "id": 368641768, "lat": 36.350934, "lon": 127.379206, "tags": {"amenity": "bank", "atm": "yes", "name": "\ub300\uc804\ucd95\uc0b0\ub18d\ud611", "name:en": "Daejeonchuksan Nonghyup", "name:ko": "\ub300\uc804\ucd95\uc0b0\ub18d\ud611", "name:ko-Latn": "Daejeonchuksannonghyeop", "ncat": "\ub18d\ud611", "source": "http://kr.open.gugi.yahoo.com"}}, {"type": "node", "id": 368767356, "lat": 36.3501079, "lon": 127.3782043, "tags": {"amenity": "doctors", "healthcare": "doctor", "name": "365MC \ube44\ub9cc\ud074\ub9ac\ub2c9 \ub300\uc804\uc810", "name:en": "365MC Biman Clinic Daejeonjeom", "name:ko": "365MC \ube44\ub9cc\ud074\ub9ac\ub2c9 \ub300\uc804\uc810", "name:ko-Latn": "365MC Bimankeullinik Daejeonjeom", "ncat": "\ubcd1\uc6d0", "source": "http://kr.open.gugi.yahoo.com"}}, {"type": "node", "id": 368767365, "lat": 36.3491225, "lon": 127.3776753, "tags": {"amenity": "doctors", "healthcare": "doctor", "name": "\uc874\uc2a4\ud0a8\ud55c\uc758\uc6d0 \ub300\uc804\uc810", "name:en": "Jonseukinhanuiwon Daejeonjeom", "name:ko": "\uc874\uc2a4\ud0a8\ud55c\uc758\uc6d0 \ub300\uc804\uc810", "name:ko-Latn": "Jonseukinhanuiwon Daejeonjeom", "ncat": "\ubcd1\uc6d0", "source": "http://kr.open.gugi.yahoo.com"}}, {"type": "node", "id": 368767458, "lat": 36.3510935, "lon": 127.3778002, "tags": {"amenity": "doctors", "healthcare": "doctor", "name": "\ubc30\ub3c5\uc0dd\uae30\ud55c\uc758\uc6d0 \ub300\uc804\uc810", "name:en": "Baedoksaenggihanuiwon Daejeonjeom", "name:ko": "\ubc30\ub3c5\uc0dd\uae30\ud55c\uc758\uc6d0 \ub300\uc804\uc810", "name:ko-Latn": "Baedoksaenggihanuiwon Daejeonjeom", "ncat": "\ubcd1\uc6d0", "source": "http://kr.open.gugi.yahoo.com"}}, {"type": "node", "id": 368767463, "lat": 36.3510019, "lon": 127.3776865, "tags": {"amenity": "dentist", "healthcare": "dentist", "name": "\uc6f0\uce58\uacfc", "name:en": "Wel Dental Clinic", "name:ko": "\uc6f0\uce58\uacfc", "name:ko-Latn": "Welchigwa", "ncat": "\uce58\uacfc"}}, {"type": "node", "id": 368767488, "lat": 36.351241, "lon": 127.3774244, "tags": {"amenity": "doctors", "healthcare": "doctor", "name": "\uac00\ud1a8\ub9ad\ud749\ubd80\uc678\uacfc", "name:en": "Catholic Hyungbu Surgery", "name:ko": "\uac00\ud1a8\ub9ad\ud749\ubd80\uc678\uacfc", "name:ko-Latn": "Gatollikhyungbuoegwa", "ncat": "\ubcd1\uc6d0", "source": "http://kr.open.gugi.yahoo.com"}}, {"type": "node", "id": 368767579, "lat": 36.351543, "lon": 127.376605, "tags": {"amenity": "doctors", "healthcare": "doctor", "name": "\uce74\ub77c\uc131\ud615\uc678\uacfc", "name:en": "Kara Plastic Surgery", "name:ko": "\uce74\ub77c\uc131\ud615\uc678\uacfc", "name:ko-Latn": "Karaseonghyeongoegwa", "ncat": "\ubcd1\uc6d0", "source": "http://kr.open.gugi.yahoo.com"}}, {"type": "node", "id": 368767604, "lat": 36.3511994, "lon": 127.3774559, "tags": {"amenity": "doctors", "healthcare": "doctor", "name": "\uac24\ub7ec\ub9ac\uc131\ud615\uc678\uacfc", "name:en": "Gallery Plastic Surgery", "name:ko": "\uac24\ub7ec\ub9ac\uc131\ud615\uc678\uacfc", "name:ko-Latn": "Gaelleoriseonghyeongoegwa", "ncat": "\ubcd1\uc6d0", "source": "http://kr.open.gugi.yahoo.com"}}, {"type": "node", "id": 368767653, "lat": 36.3509165, "lon": 127.3776308, "tags": {"amenity": "dentist", "healthcare": "dentist", "name": "\uc774\ubc14\ub974\uac8c\uce58\uacfc", "name:en": "Ibareuge Dental Clinic", "name:ko": "\uc774\ubc14\ub974\uac8c\uce58\uacfc", "name:ko-Latn": "Ibareugechigwa", "ncat": "\uce58\uacfc"}}, {"type": "node", "id": 368767773, "lat": 36.3499909, "lon": 127.3770561, "tags": {"amenity": "doctors", "healthcare": "doctor", "name": "\ubaa8\ud0dc\uc0b0\ubd80\uc778\uacfc", "name:en": "Motae Obstetrics & Gynecology Clinic", "name:ko": "\ubaa8\ud0dc\uc0b0\ubd80\uc778\uacfc", "name:ko-Latn": "Motaesanbuingwa", "ncat": "\ubcd1\uc6d0", "source": "http://kr.open.gugi.yahoo.com"}}, {"type": "node", "id": 368767784, "lat": 36.3503766, "lon": 127.3774341, "tags": {"amenity": "doctors", "healthcare": "doctor", "name": "\uc774\ud5cc\uc8fc\uc131\ud615\uc678\uacfc", "name:en": "Iheonju Plastic Surgery", "name:ko": "\uc774\ud5cc\uc8fc\uc131\ud615\uc678\uacfc", "name:ko-Latn": "Iheonjuseonghyeongoegwa", "ncat": "\ubcd1\uc6d0", "source": "http://kr.open.gugi.yahoo.com"}}, {"type": "node", "id": 368767826, "lat": 36.3506521, "lon": 127.3786175, "tags": {"amenity": "doctors", "healthcare": "doctor", "name": "\ub2e5\ud130\uae40\ud55c\uc758\uc6d0", "name:en": "Doctor Gim Oriental Medicine Clinic", "name:ko": "\ub2e5\ud130\uae40\ud55c\uc758\uc6d0", "name:ko-Latn": "Dakteogimhanuiwon", "ncat": "\ubcd1\uc6d0", "source": "http://kr.open.gugi.yahoo.com"}}, {"type": "node", "id": 368768083, "lat": 36.3511564, "lon": 127.3778838, "tags": {"amenity": "doctors", "healthcare": "doctor", "name": "\ub454\uc0b0\ubc30\uc0ac\ub791\ub0b4\uacfc\uc758\uc6d0", "name:en": "Dunsanbaesarang Internal Medicine Clinic", "name:ko": "\ub454\uc0b0\ubc30\uc0ac\ub791\ub0b4\uacfc\uc758\uc6d0", "name:ko-Latn": "Dunsanbaesarangnaegwauiwon", "ncat": "\ubcd1\uc6d0", "source": "http://kr.open.gugi.yahoo.com"}}, {"type": "node", "id": 368768251, "lat": 36.34915, "lon": 127.37756, "tags": {"amenity": "doctors", "healthcare": "doctor", "name": "\ud574\ub9d1\uc740\uc815\uc2e0\uacfc", "name:en": "Haemalgeun Psychiatric Clinic", "name:ko": "\ud574\ub9d1\uc740\uc815\uc2e0\uacfc", "name:ko-Latn": "Haemalgeunjeongsingwa", "ncat": "\ubcd1\uc6d0", "source": "http://kr.open.gugi.yahoo.com"}}, {"type": "node", "id": 368768282, "lat": 36.3510616, "lon": 127.3779517, "tags": {"amenity": "dentist", "healthcare": "dentist", "name": "\ud0c0\uc784\uce58\uacfc", "name:en": "Time Dental Clinic", "name:ko": "\ud0c0\uc784\uce58\uacfc", "name:ko-Latn": "Taimchigwa", "ncat": "\uce58\uacfc"}}, {"type": "node", "id": 368768295, "lat": 36.350544, "lon": 127.376947, "tags": {"amenity": "doctors", "healthcare": "doctor", "name": "\ubaa8\ud0dc\ud53c\ubd80\ube44\ub9cc\uc13c\ud130", "name:en": "Motaepibubiman Center", "name:ko": "\ubaa8\ud0dc\ud53c\ubd80\ube44\ub9cc\uc13c\ud130", "name:ko-Latn": "Motaepibubimansenteo", "ncat": "\ubcd1\uc6d0", "source": "http://kr.open.gugi.yahoo.com"}}, {"type": "node", "id": 368768359, "lat": 36.349507, "lon": 127.376855, "tags": {"amenity": "doctors", "healthcare": "doctor", "name": "\uc0bc\uc131\ud749\ubd80\uc678\uacfc", "name:en": "Samseonghyungbu Surgery", "name:ko": "\uc0bc\uc131\ud749\ubd80\uc678\uacfc", "name:ko-Latn": "Samseonghyungbuoegwa", "ncat": "\ubcd1\uc6d0", "source": "http://kr.open.gugi.yahoo.com"}}, {"type": "node", "id": 368768415, "lat": 36.3512156, "lon": 127.3775104, "tags": {"amenity": "doctors", "healthcare": "doctor", "name": "\ud154\ub808\ube44\uc83c\uc131\ud615\uc678\uacfc", "name:en": "Tellebijyeon Plastic Surgery", "name:ko": "\ud154\ub808\ube44\uc83c\uc131\ud615\uc678\uacfc", "name:ko-Latn": "Tellebijyeonseonghyeongoegwa", "ncat": "\ubcd1\uc6d0", "source": "http://kr.open.gugi.yahoo.com"}}, {"type": "node", "id": 368768444, "lat": 36.3509375, "lon": 127.3792403, "tags": {"amenity": "doctors", "healthcare": "doctor", "name": "\uc544\uc774\ub9ac\uc2a4\uc758\uc6d0", "name:en": "Airiseu Clinic", "name:ko": "\uc544\uc774\ub9ac\uc2a4\uc758\uc6d0", "name:ko-Latn": "Airiseuuiwon", "ncat": "\ubcd1\uc6d0", "source": "http://kr.open.gugi.yahoo.com"}}, {"type": "node", "id": 368768521, "lat": 36.35059, "lon": 127.37854, "tags": {"amenity": "dentist", "healthcare": "dentist", "name": "\ubbf8\uc18c\uac00\uc788\ub294\uce58\uacfc", "name:en": "Misogaitsneun Dental Clinic", "name:ko": "\ubbf8\uc18c\uac00\uc788\ub294\uce58\uacfc", "name:ko-Latn": "Misogaitsneunchigwa", "ncat": "\uce58\uacfc"}}, {"type": "node", "id": 368769039, "lat": 36.3515084, "lon": 127.3766699, "tags": {"amenity": "dentist", "healthcare": "dentist", "name": "\uc5f0\uc138\ud574\ub9d1\uc740\uce58\uacfc", "name:en": "Yeonsehaemalgeun Dental Clinic", "name:ko": "\uc5f0\uc138\ud574\ub9d1\uc740\uce58\uacfc", "name:ko-Latn": "Yeonsehaemalgeunchigwa", "ncat": "\uce58\uacfc"}}, {"type": "node", "id": 368769066, "lat": 36.3504205, "lon": 127.3774485, "tags": {"amenity": "prep_school", "name": "\ubbf8\uc988\uac04\ud638\ud559\uc6d0 \ub300\uc804\uc810", "name:en": "Mijeuganho Academy Daejeonjeom", "name:ko": "\ubbf8\uc988\uac04\ud638\ud559\uc6d0 \ub300\uc804\uc810", "name:ko-Latn": "Mijeuganhohakwon Daejeonjeom", "ncat": "\ubcd1\uc6d0", "source": "http://kr.open.gugi.yahoo.com"}}, {"type": "node", "id": 368769075, "lat": 36.3508372, "lon": 127.3777519, "tags": {"amenity": "doctors", "healthcare": "doctor", "name": "\uc815\ucc3d\ud6c8\uc131\ud615\uc678\uacfc", "name:en": "Jeongchanghun Plastic Surgery", "name:ko": "\uc815\ucc3d\ud6c8\uc131\ud615\uc678\uacfc", "name:ko-Latn": "Jeongchanghunseonghyeongoegwa", "ncat": "\ubcd1\uc6d0", "source": "http://kr.open.gugi.yahoo.com"}}, {"type": "node", "id": 368769152, "lat": 36.3509225, "lon": 127.3778188, "tags": {"amenity": "doctors", "healthcare": "doctor", "name": "\uc544\ud1a0\ud0a4\uc988\ud55c\uc758\uc6d0 \ub300\uc804\uc810", "name:en": "Ato Kids Hanuiwon Daejeonjeom", "name:ko": "\uc544\ud1a0\ud0a4\uc988\ud55c\uc758\uc6d0 \ub300\uc804\uc810", "name:ko-Latn": "Atokijeuhanuiwon Daejeonjeom", "ncat": "\ubcd1\uc6d0", "source": "http://kr.open.gugi.yahoo.com"}}, {"type": "node", "id": 368769199, "lat": 36.3515523, "lon": 127.376733, "tags": {"amenity": "dentist", "healthcare": "dentist", "name": "\uc77c\ub9ac\ub178\uc774\uce58\uacfc\uc758\uc6d0", "name:en": "Illinoi Dental Clinic", "name:ko": "\uc77c\ub9ac\ub178\uc774\uce58\uacfc\uc758\uc6d0", "name:ko-Latn": "Illinoichigwauiwon", "ncat": "\uce58\uacfc"}}, {"type": "node", "id": 368769225, "lat": 36.35077, "lon": 127.37762, "tags": {"amenity": "dentist", "healthcare": "dentist", "name": "\uc774\uc548\uce58\uacfc\uc758\uc6d0", "name:en": "Ian Dental Clinic", "name:ko": "\uc774\uc548\uce58\uacfc\uc758\uc6d0", "name:ko-Latn": "Ianchigwauiwon", "ncat": "\uce58\uacfc"}}, {"type": "node", "id": 368769356, "lat": 36.3509225, "lon": 127.3777296, "tags": {"amenity": "doctors", "healthcare": "doctor", "name": "\ub298\ud478\ub978 \uc678\uacfc", "name:en": "Neulpureun Surgery", "name:ko": "\ub298\ud478\ub978 \uc678\uacfc", "name:ko-Latn": "Neulpureun Oegwa", "ncat": "\ubcd1\uc6d0", "source": "http://kr.open.gugi.yahoo.com"}}, {"type": "node", "id": 368769369, "lat": 36.349523, "lon": 127.378225, "tags": {"amenity": "prep_school", "name": "\uc624\ub77c\ud074\uac04\ud638\ud559\uc6d0", "name:en": "Orakeulganho Academy", "name:ko": "\uc624\ub77c\ud074\uac04\ud638\ud559\uc6d0", "name:ko-Latn": "Orakeulganhohakwon", "ncat": "\ubcd1\uc6d0", "source": "http://kr.open.gugi.yahoo.com"}}, {"type": "node", "id": 368769378, "lat": 36.3521057, "lon": 127.3772027, "tags": {"amenity": "dentist", "healthcare": "dentist", "name": "\uace0\uc6b4\ud131\uce58\uacfc\uc758\uc6d0", "name:en": "Gounteok Dental Clinic", "name:ko": "\uace0\uc6b4\ud131\uce58\uacfc\uc758\uc6d0", "name:ko-Latn": "Gounteokchigwauiwon", "ncat": "\uce58\uacfc"}}, {"type": "node", "id": 368769400, "lat": 36.3509768, "lon": 127.3806797, "tags": {"amenity": "doctors", "healthcare": "doctor", "name": "\ubc15\uc815\ud718\ud55c\uc758\uc6d0", "name:en": "Bakjeonghwi Oriental Medicine Clinic", "name:ko": "\ubc15\uc815\ud718\ud55c\uc758\uc6d0", "name:ko-Latn": "Bakjeonghwihanuiwon", "ncat": "\ubcd1\uc6d0", "source": "http://kr.open.gugi.yahoo.com"}}, {"type": "node", "id": 368769996, "lat": 36.350603, "lon": 127.379587, "tags": {"amenity": "prep_school", "name": "\uc624\ub77c\ud074\uc11c\ube44\uc2a4\uad50\uc721\uc13c\ud130", "name:en": "Orakeulseobiseugyoyuk Center", "name:ko": "\uc624\ub77c\ud074\uc11c\ube44\uc2a4\uad50\uc721\uc13c\ud130", "name:ko-Latn": "Orakeulseobiseugyoyuksenteo", "ncat": "\ubcd1\uc6d0", "source": "http://kr.open.gugi.yahoo.com"}}, {"type": "node", "id": 368770239, "lat": 36.3507329, "lon": 127.3786455, "tags": {"amenity": "doctors", "healthcare": "doctor", "name": "\ud0c0\uc784\uc678\uacfc\uc758\uc6d0", "name:en": "Time Oegwa Clinic", "name:ko": "\ud0c0\uc784\uc678\uacfc\uc758\uc6d0", "name:ko-Latn": "Taimoegwauiwon", "ncat": "\ubcd1\uc6d0", "source": "http://kr.open.gugi.yahoo.com"}}, {"type": "node", "id": 368770911, "lat": 36.3502954, "lon": 127.3783429, "tags": {"amenity": "dentist", "healthcare": "dentist", "name": "\ubcf4\uc2a4\ud1a4\uc5b4\ub9b0\uc774\uce58\uacfc;\uc5b4\ub9b0\uc774\uce58\uacfc", "name:en": "Boseuton Children Dental Clinic;Children Dental Clinic", "name:ko": "\ubcf4\uc2a4\ud1a4\uc5b4\ub9b0\uc774\uce58\uacfc;\uc5b4\ub9b0\uc774\uce58\uacfc", "name:ko-Latn": "Boseutoneorinichigwa;Eorinichigwa", "ncat": "\uce58\uacfc"}}, {"type": "node", "id": 368771715, "lat": 36.3499951, "lon": 127.3781379, "tags": {"amenity": "dentist", "healthcare": "dentist", "name": "\uc11c\uc6b8\ubc14\ub978\uce58\uacfc\uc758\uc6d0", "name:en": "Seoul Bareun Dental Clinic", "name:ko": "\uc11c\uc6b8\ubc14\ub978\uce58\uacfc\uc758\uc6d0", "name:ko-Latn": "Seoulbareunchigwauiwon", "ncat": "\uce58\uacfc"}}, {"type": "node", "id": 368772006, "lat": 36.35004, "lon": 127.37814, "tags": {"amenity": "dentist", "healthcare": "dentist", "name": "\uc5f0\uc138\ubcf8\uce58\uacfc\uc758\uc6d0", "name:en": "Yeonsebon Dental Clinic", "name:ko": "\uc5f0\uc138\ubcf8\uce58\uacfc\uc758\uc6d0", "name:ko-Latn": "Yeonsebonchigwauiwon", "ncat": "\uce58\uacfc"}}, {"type": "node", "id": 368772459, "lat": 36.3512469, "lon": 127.37748, "tags": {"amenity": "dentist", "healthcare": "dentist", "name": "\uc774\ucc3d\uadfc\uce58\uacfc", "name:en": "Ichanggeun Dental Clinic", "name:ko": "\uc774\ucc3d\uadfc\uce58\uacfc", "name:ko-Latn": "Ichanggeunchigwa", "ncat": "\uce58\uacfc"}}, {"type": "node", "id": 368772509, "lat": 36.35071, "lon": 127.37857, "tags": {"amenity": "dentist", "healthcare": "dentist", "name": "\ubbf8\uc18c\uac00\uc788\ub294\uce58\uacfc", "name:en": "Misogaitsneun Dental Clinic", "name:ko": "\ubbf8\uc18c\uac00\uc788\ub294\uce58\uacfc", "name:ko-Latn": "Misogaitsneunchigwa", "ncat": "\uce58\uacfc"}}, {"type": "node", "id": 368773260, "lat": 36.35051, "lon": 127.37846, "tags": {"amenity": "dentist", "healthcare": "dentist", "name": "\ud55c\ubcd1\uc8fc\uce58\uacfc", "name:en": "Hanbyeongju Dental Clinic", "name:ko": "\ud55c\ubcd1\uc8fc\uce58\uacfc", "name:ko-Latn": "Hanbyeongjuchigwa", "ncat": "\uce58\uacfc"}}, {"type": "node", "id": 368773420, "lat": 36.3496429, "lon": 127.3768933, "tags": {"amenity": "dentist", "healthcare": "dentist", "name": "\ubc15\uc601\uc218\uce58\uacfc\uc758\uc6d0", "name:en": "Bakyeongsu Dental Clinic", "name:ko": "\ubc15\uc601\uc218\uce58\uacfc\uc758\uc6d0", "name:ko-Latn": "Bakyeongsuchigwauiwon", "ncat": "\uce58\uacfc"}}, {"type": "node", "id": 368773462, "lat": 36.3503538, "lon": 127.3773728, "tags": {"amenity": "dentist", "healthcare": "dentist", "name": "\ud55c\ubbf8\uce58\uacfc", "name:en": "Hanmi Dental Clinic", "name:ko": "\ud55c\ubbf8\uce58\uacfc", "name:ko-Latn": "Hanmichigwa", "ncat": "\uce58\uacfc"}}, {"type": "node", "id": 368773543, "lat": 36.3509559, "lon": 127.3781288, "tags": {"amenity": "dentist", "healthcare": "dentist", "name": "\uc6d4\ub4dc\uce58\uacfc\uc758\uc6d0", "name:en": "World Dental Clinic", "name:ko": "\uc6d4\ub4dc\uce58\uacfc\uc758\uc6d0", "name:ko-Latn": "Woldeuchigwauiwon", "ncat": "\uce58\uacfc"}}, {"type": "node", "id": 368773587, "lat": 36.3520707, "lon": 127.3767127, "tags": {"amenity": "dentist", "healthcare": "dentist", "name": "\ub9c8\ub85c\ub2c8\uc5d0\uce58\uacfc", "name:en": "Maronie Dental Clinic", "name:ko": "\ub9c8\ub85c\ub2c8\uc5d0\uce58\uacfc", "name:ko-Latn": "Maroniechigwa", "ncat": "\uce58\uacfc"}}, {"type": "node", "id": 368773658, "lat": 36.34914, "lon": 127.37763, "tags": {"amenity": "dentist", "healthcare": "dentist", "name": "\uc18c\ub9ac\uc18c\uce58\uacfc\uc758\uc6d0", "name:en": "Soriso Dental Clinic", "name:ko": "\uc18c\ub9ac\uc18c\uce58\uacfc\uc758\uc6d0", "name:ko-Latn": "Sorisochigwauiwon", "ncat": "\uce58\uacfc"}}, {"type": "node", "id": 368773684, "lat": 36.350472, "lon": 127.3784815, "tags": {"amenity": "dentist", "healthcare": "dentist", "name": "\uc544\uc774\uc138\uc0c1\uce58\uacfc\uc758\uc6d0", "name:en": "Aisesang Dental Clinic", "name:ko": "\uc544\uc774\uc138\uc0c1\uce58\uacfc\uc758\uc6d0", "name:ko-Latn": "Aisesangchigwauiwon", "ncat": "\uce58\uacfc"}}, {"type": "node", "id": 368773723, "lat": 36.35221, "lon": 127.3784392, "tags": {"amenity": "dentist", "healthcare": "dentist", "name": "\ud0c0\uc784\uc6d4\ub4dc\uce58\uacfc", "name:en": "Time World Dental Clinic", "name:ko": "\ud0c0\uc784\uc6d4\ub4dc\uce58\uacfc", "name:ko-Latn": "Taimwoldeuchigwa", "ncat": "\uce58\uacfc"}}, {"type": "node", "id": 368773727, "lat": 36.35221, "lon": 127.37848, "tags": {"amenity": "dentist", "healthcare": "dentist", "name": "\uc774\uad11\uc6b0\uce58\uacfc", "name:en": "Igwangu Dental Clinic", "name:ko": "\uc774\uad11\uc6b0\uce58\uacfc", "name:ko-Latn": "Igwanguchigwa", "ncat": "\uce58\uacfc"}}, {"type": "node", "id": 368887651, "lat": 36.3504234, "lon": 127.3806153, "tags": {"amenity": "kindergarten", "name": "\uc740\ud558\uc218\uc720\uce58\uc6d0", "name:en": "Eunhasu Kindergarten", "name:ko": "\uc740\ud558\uc218\uc720\uce58\uc6d0", "name:ko-Latn": "Eunhasuyuchiwon", "ncat": "\uc720\uce58\uc6d0", "source": "http://kr.open.gugi.yahoo.com"}}, {"type": "node", "id": 368896419, "lat": 36.350932, "lon": 127.378783, "tags": {"amenity": "bank", "atm": "yes", "brand": "\uc2e0\ud55c\uc740\ud589", "brand:en": "Shinhan Bank", "brand:ko": "\uc2e0\ud55c\uc740\ud589", "brand:wikidata": "Q487230", "name": "\uc2e0\ud55c\uc740\ud589", "name:en": "Shinhan Bank", "name:ko": "\uc2e0\ud55c\uc740\ud589", "name:ko-Latn": "Sinhaneunhaeng", "ncat": "\uc740\ud589", "source": "http://kr.open.gugi.yahoo.com"}}, {"type": "node", "id": 368896476, "lat": 36.35221, "lon": 127.378483, "tags": {"amenity": "bank", "atm": "yes", "brand": "\uc6b0\ub9ac\uc740\ud589", "brand:en": "Woori Bank", "brand:ko": "\uc6b0\ub9ac\uc740\ud589", "brand:wikidata": "Q494369", "name": "\uc6b0\ub9ac\uc740\ud589", "name:en": "Woori Bank", "name:ko": "\uc6b0\ub9ac\uc740\ud589", "name:ko-Latn": "Urieunhaeng", "ncat": "\uc740\ud589", "source": "http://kr.open.gugi.yahoo.com"}}, {"type": "node", "id": 368896590, "lat": 36.3504066, "lon": 127.3773797, "tags": {"amenity": "bank", "atm": "yes", "name": "\ub300\uc131\uc0c1\ud638\uc800\ucd95\uc740\ud589", "name:en": "Daeseong Mutual Saving Bank", "name:ko": "\ub300\uc131\uc0c1\ud638\uc800\ucd95\uc740\ud589", "name:ko-Latn": "Daeseongsanghojeochukeunhaeng", "ncat": "\uc740\ud589", "source": "http://kr.open.gugi.yahoo.com"}}, {"type": "node", "id": 368911561, "lat": 36.349687, "lon": 127.377875, "tags": {"amenity": "fuel", "brand": "\ud604\ub300\uc624\uc77c\ubc45\ud06c", "name": "\ub300\uc804\uccad\uc0ac\uc140\ud504\uc8fc\uc720\uc18c", "name:en": "Daejeoncheongsa Gas Station", "name:ko": "\ub300\uc804\uccad\uc0ac\uc140\ud504\uc8fc\uc720\uc18c", "name:ko-Latn": "Daejeoncheongsajuyuso", "ncat": "\uc8fc\uc720\uc18c", "source": "http://oilbank.co.kr"}}, {"type": "node", "id": 414674773, "lat": 36.3512751, "lon": 127.3785719}, {"type": "node", "id": 414675550, "lat": 36.3513327, "lon": 127.3829545}, {"type": "node", "id": 436781258, "lat": 36.3535823, "lon": 127.3775136}, {"type": "node", "id": 436781259, "lat": 36.3535802, "lon": 127.3766088}, {"type": "node", "id": 436793056, "lat": 36.3481166, "lon": 127.3787934}, {"type": "node", "id": 436793827, "lat": 36.3490553, "lon": 127.3771466}, {"type": "node", "id": 436793938, "lat": 36.3489881, "lon": 127.381992}, {"type": "node", "id": 436793949, "lat": 36.3543358, "lon": 127.3803615}, {"type": "node", "id": 436867735, "lat": 36.3505631, "lon": 127.3791848}, {"type": "node", "id": 436867736, "lat": 36.3490036, "lon": 127.3781561}, {"type": "node", "id": 436875817, "lat": 36.3505629, "lon": 127.3820094}, {"type": "node", "id": 436875818, "lat": 36.3505661, "lon": 127.38295}, {"type": "node", "id": 448138735, "lat": 36.347774, "lon": 127.378101}, {"type": "node", "id": 448138736, "lat": 36.3488867, "lon": 127.3771279}, {"type": "node", "id": 448138739, "lat": 36.352866, "lon": 127.3794979}, {"type": "node", "id": 499979836, "lat": 36.3494992, "lon": 127.3754288}, {"type": "node", "id": 499979837, "lat": 36.3490397, "lon": 127.3762358}, {"type": "node", "id": 499979838, "lat": 36.3486953, "lon": 127.3767581}, {"type": "node", "id": 499979839, "lat": 36.3485537, "lon": 127.3769351}, {"type": "node", "id": 499979840, "lat": 36.3478926, "lon": 127.377514}, {"type": "node", "id": 499979855, "lat": 36.3487858, "lon": 127.3767837}, {"type": "node", "id": 538801268, "lat": 36.3515314, "lon": 127.373636}, {"type": "node", "id": 538801333, "lat": 36.3489977, "lon": 127.380902, "tags": {"crossing": "traffic_signals", "crossing:island": "no", "crossing:markings": "zebra", "highway": "crossing", "kerb": "lowered", "tactile_paving": "no", "traffic_signals:arrow": "no", "traffic_signals:countdown": "yes", "traffic_signals:minimap": "no"}}, {"type": "node", "id": 538801337, "lat": 36.3492907, "lon": 127.3783269}, {"type": "node", "id": 538801340, "lat": 36.3505636, "lon": 127.3807861}, {"type": "node", "id": 1135193591, "lat": 36.3518139, "lon": 127.3776174}, {"type": "node", "id": 1135193625, "lat": 36.3516529, "lon": 127.3780463}, {"type": "node", "id": 1135193636, "lat": 36.3521879, "lon": 127.3787558, "tags": {"amenity": "bicycle_rental", "capacity": "13", "name": "\ud0c0\uc784\uc6d4\ub4dc", "network": "U-bike", "operator": "http://www.ta-shu.com", "ref": "17"}}, {"type": "node", "id": 1135193667, "lat": 36.35165, "lon": 127.3783186}, {"type": "node", "id": 1135193671, "lat": 36.3516301, "lon": 127.3782183}, {"type": "node", "id": 1135193715, "lat": 36.35228, "lon": 127.3788073}, {"type": "node", "id": 1135193730, "lat": 36.352097, "lon": 127.3780888}, {"type": "node", "id": 1135193760, "lat": 36.3517064, "lon": 127.3784132}, {"type": "node", "id": 1135193809, "lat": 36.3524456, "lon": 127.3783378}, {"type": "node", "id": 1135193813, "lat": 36.3516295, "lon": 127.3781431}, {"type": "node", "id": 1135193818, "lat": 36.352097, "lon": 127.3776142}, {"type": "node", "id": 1233483312, "lat": 36.3505342, "lon": 127.3756399}, {"type": "node", "id": 4439109273, "lat": 36.3520903, "lon": 127.3811565, "tags": {"crossing": "uncontrolled", "crossing:island": "no", "crossing:markings": "zebra", "highway": "crossing", "kerb": "lowered", "tactile_paving": "no"}}, {"type": "node", "id": 4441698997, "lat": 36.3521703, "lon": 127.380774}, {"type": "node", "id": 4441698998, "lat": 36.3521685, "lon": 127.3803505}, {"type": "node", "id": 4441698999, "lat": 36.352214, "lon": 127.3811274}, {"type": "node", "id": 4441699000, "lat": 36.3522179, "lon": 127.3808159}, {"type": "node", "id": 4441699002, "lat": 36.3524284, "lon": 127.3811316}, {"type": "node", "id": 4441699003, "lat": 36.3524324, "lon": 127.3808201}, {"type": "node", "id": 4441699004, "lat": 36.3524316, "lon": 127.3808834}, {"type": "node", "id": 4441699007, "lat": 36.3524078, "lon": 127.3807724}, {"type": "node", "id": 4441699008, "lat": 36.352406, "lon": 127.3803489}, {"type": "node", "id": 4441699022, "lat": 36.3527796, "lon": 127.3803002}, {"type": "node", "id": 4449948189, "lat": 36.3522132, "lon": 127.3809724, "tags": {"amenity": "restaurant", "name:en": "Korean BBQ"}}, {"type": "node", "id": 4634800327, "lat": 36.355126, "lon": 127.376617}, {"type": "node", "id": 4634800328, "lat": 36.3551216, "lon": 127.3775076}, {"type": "node", "id": 4634800330, "lat": 36.3544218, "lon": 127.3766133}, {"type": "node", "id": 4634800333, "lat": 36.3521826, "lon": 127.3775098}, {"type": "node", "id": 4634800334, "lat": 36.3522187, "lon": 127.3779976}, {"type": "node", "id": 4634800335, "lat": 36.352634, "lon": 127.3782875, "tags": {"crossing": "uncontrolled", "crossing:island": "no", "crossing:markings": "zebra:double", "highway": "crossing", "kerb": "flush", "tactile_paving": "no", "traffic_calming": "table"}}, {"type": "node", "id": 4634800336, "lat": 36.35299, "lon": 127.3784466}, {"type": "node", "id": 4634800339, "lat": 36.3535857, "lon": 127.3785157}, {"type": "node", "id": 4634800343, "lat": 36.3544187, "lon": 127.3785071}, {"type": "node", "id": 4634800345, "lat": 36.3551159, "lon": 127.3785066}, {"type": "node", "id": 4634800349, "lat": 36.3528389, "lon": 127.3775137, "tags": {"crossing": "uncontrolled", "crossing:island": "no", "crossing:markings": "zebra", "highway": "crossing", "kerb": "lowered", "tactile_paving": "no"}}, {"type": "node", "id": 4684602738, "lat": 36.3522091, "lon": 127.3771683}, {"type": "node", "id": 4684602739, "lat": 36.3522434, "lon": 127.377131}, {"type": "node", "id": 4684602740, "lat": 36.3528432, "lon": 127.377135}, {"type": "node", "id": 4684602741, "lat": 36.3535813, "lon": 127.3771415}, {"type": "node", "id": 4684602743, "lat": 36.3544217, "lon": 127.3771472}, {"type": "node", "id": 4684602744, "lat": 36.3551233, "lon": 127.3771524}, {"type": "node", "id": 4703023929, "lat": 36.3497074, "lon": 127.3781932, "tags": {"addr:city": "\ub300\uc804\uad11\uc5ed\uc2dc", "addr:district": "\uc11c\uad6c", "addr:housenumber": "33", "addr:postcode": "35234", "addr:street": "\ub454\uc0b0\ub0a8\ub85c9\ubc88\uae38", "addr:subdistrict": "\ub454\uc0b0\ub3d9", "amenity": "restaurant", "cuisine": "brunch", "name": "\ubaa8\ub8e8", "name:en": "Moru", "opening_hours": "10:30-22:30", "phone": "+82-42-486-2201"}}, {"type": "node", "id": 4703023930, "lat": 36.3494353, "lon": 127.3779926}, {"type": "node", "id": 4703023931, "lat": 36.3502654, "lon": 127.3785226}, {"type": "node", "id": 4703023932, "lat": 36.3508753, "lon": 127.378949}, {"type": "node", "id": 4703023933, "lat": 36.350873, "lon": 127.3794928}, {"type": "node", "id": 4703023934, "lat": 36.3508624, "lon": 127.3820111}, {"type": "node", "id": 4703023936, "lat": 36.3505633, "lon": 127.3794933}, {"type": "node", "id": 4703023937, "lat": 36.3511855, "lon": 127.3804412, "tags": {"bus": "yes", "highway": "bus_stop", "name": "SK\ube0c\ub85c\ub4dc\ubc34\ub4dc", "name:ko": "SK\ube0c\ub85c\ub4dc\ubc34\ub4dc", "public_transport": "platform", "ref": "32220", "shelter": "yes"}}, {"type": "node", "id": 4703023938, "lat": 36.3514005, "lon": 127.3804805, "tags": {"bus": "yes", "highway": "bus_stop", "name": "\uc544\uc774\ube4c\ub529", "name:ko": "\uc544\uc774\ube4c\ub529", "public_transport": "platform", "ref": "32190", "shelter": "yes"}}, {"type": "node", "id": 4711509623, "lat": 36.3499662, "lon": 127.3752621}, {"type": "node", "id": 4716598741, "lat": 36.3544195, "lon": 127.3775104}, {"type": "node", "id": 4721404872, "lat": 36.3501227, "lon": 127.3764671}, {"type": "node", "id": 4721404873, "lat": 36.3513253, "lon": 127.3772603}, {"type": "node", "id": 4721404874, "lat": 36.3514881, "lon": 127.3768875}, {"type": "node", "id": 4721404875, "lat": 36.3505842, "lon": 127.3763042}, {"type": "node", "id": 4721404876, "lat": 36.3504308, "lon": 127.3766702}, {"type": "node", "id": 4721404877, "lat": 36.350279, "lon": 127.3770332}, {"type": "node", "id": 4721404878, "lat": 36.3511828, "lon": 127.3776165}, {"type": "node", "id": 4721404880, "lat": 36.3507353, "lon": 127.3773277, "tags": {"crossing": "zebra", "highway": "crossing"}}, {"type": "node", "id": 4721404881, "lat": 36.3508868, "lon": 127.3769709, "tags": {"crossing": "zebra", "highway": "crossing"}}, {"type": "node", "id": 4721404882, "lat": 36.3510439, "lon": 127.3766008, "tags": {"crossing": "zebra", "highway": "crossing"}}, {"type": "node", "id": 4721404883, "lat": 36.3512527, "lon": 127.3761089}, {"type": "node", "id": 4721404884, "lat": 36.3518148, "lon": 127.3747848}, {"type": "node", "id": 4721404885, "lat": 36.3520968, "lon": 127.3741207}, {"type": "node", "id": 4721404886, "lat": 36.3511671, "lon": 127.3743674}, {"type": "node", "id": 4721404887, "lat": 36.3524322, "lon": 127.3752101}, {"type": "node", "id": 4721430690, "lat": 36.3522632, "lon": 127.3776467}, {"type": "node", "id": 4721430691, "lat": 36.3522614, "lon": 127.3779257}, {"type": "node", "id": 4721430692, "lat": 36.3522865, "lon": 127.3779659}, {"type": "node", "id": 4721430693, "lat": 36.3525839, "lon": 127.3781608}, {"type": "node", "id": 4721430695, "lat": 36.3526249, "lon": 127.3781501}, {"type": "node", "id": 4721430696, "lat": 36.352653, "lon": 127.3781259}, {"type": "node", "id": 4721430697, "lat": 36.3526746, "lon": 127.3780911}, {"type": "node", "id": 4721430698, "lat": 36.3526897, "lon": 127.3780589}, {"type": "node", "id": 4721430699, "lat": 36.3527005, "lon": 127.3778101}, {"type": "node", "id": 4721430700, "lat": 36.3528099, "lon": 127.3778101}, {"type": "node", "id": 4721430701, "lat": 36.3528111, "lon": 127.377604}, {"type": "node", "id": 4721430702, "lat": 36.3522917, "lon": 127.3776145}, {"type": "node", "id": 4721430703, "lat": 36.3522627, "lon": 127.3777251}, {"type": "node", "id": 4721430704, "lat": 36.352097, "lon": 127.3777243}, {"type": "node", "id": 4721430705, "lat": 36.352097, "lon": 127.3777672}, {"type": "node", "id": 4721430706, "lat": 36.3522624, "lon": 127.3777645}, {"type": "node", "id": 4721433404, "lat": 36.3525583, "lon": 127.3793852}, {"type": "node", "id": 4721433405, "lat": 36.3530425, "lon": 127.3795339}, {"type": "node", "id": 4721435542, "lat": 36.3523183, "lon": 127.3786916}, {"type": "node", "id": 4721435543, "lat": 36.352515, "lon": 127.3788309}, {"type": "node", "id": 4721435544, "lat": 36.3525341, "lon": 127.3787825}, {"type": "node", "id": 4721435545, "lat": 36.3523354, "lon": 127.3786401}, {"type": "node", "id": 4725236409, "lat": 36.3524655, "lon": 127.377416}, {"type": "node", "id": 4725236410, "lat": 36.3524669, "lon": 127.3772228}, {"type": "node", "id": 4725236411, "lat": 36.3522343, "lon": 127.3772281}, {"type": "node", "id": 4725236412, "lat": 36.3522343, "lon": 127.3773929}, {"type": "node", "id": 4725236413, "lat": 36.35226, "lon": 127.3774213}, {"type": "node", "id": 4725236423, "lat": 36.3519014, "lon": 127.3773161}, {"type": "node", "id": 4725236424, "lat": 36.3519549, "lon": 127.3774279}, {"type": "node", "id": 4725236425, "lat": 36.3521489, "lon": 127.3774254}, {"type": "node", "id": 4725236426, "lat": 36.3521776, "lon": 127.3773898}, {"type": "node", "id": 4725236427, "lat": 36.3521776, "lon": 127.377305}, {"type": "node", "id": 4725236428, "lat": 36.3521132, "lon": 127.3773075}, {"type": "node", "id": 4725236429, "lat": 36.3520845, "lon": 127.3772804}, {"type": "node", "id": 4725236430, "lat": 36.3520865, "lon": 127.3771035}, {"type": "node", "id": 4725236431, "lat": 36.3519727, "lon": 127.3771059}, {"type": "node", "id": 4725236432, "lat": 36.3520628, "lon": 127.3768638}, {"type": "node", "id": 4725236433, "lat": 36.3520806, "lon": 127.3768343}, {"type": "node", "id": 4725236434, "lat": 36.3521103, "lon": 127.3768048}, {"type": "node", "id": 4725236435, "lat": 36.3521429, "lon": 127.3767901}, {"type": "node", "id": 4725236436, "lat": 36.3521766, "lon": 127.3767889}, {"type": "node", "id": 4725236437, "lat": 36.3522043, "lon": 127.3767987}, {"type": "node", "id": 4725236438, "lat": 36.3522241, "lon": 127.376811}, {"type": "node", "id": 4725236439, "lat": 36.3522399, "lon": 127.3768233}, {"type": "node", "id": 4725236440, "lat": 36.3522746, "lon": 127.3767704}, {"type": "node", "id": 4725236441, "lat": 36.3522963, "lon": 127.3767716}, {"type": "node", "id": 4725236442, "lat": 36.3522983, "lon": 127.3770248}, {"type": "node", "id": 4725236443, "lat": 36.3522498, "lon": 127.3770285}, {"type": "node", "id": 4725236444, "lat": 36.3522478, "lon": 127.3770506}, {"type": "node", "id": 4725236445, "lat": 36.35223, "lon": 127.3770691}, {"type": "node", "id": 4725236446, "lat": 36.3522132, "lon": 127.3770838}, {"type": "node", "id": 4725236447, "lat": 36.3521885, "lon": 127.3770924}, {"type": "node", "id": 4725236448, "lat": 36.3521667, "lon": 127.3770936}, {"type": "node", "id": 4725236449, "lat": 36.3521489, "lon": 127.3770973}, {"type": "node", "id": 4725236450, "lat": 36.3520261, "lon": 127.3770985}, {"type": "node", "id": 4725236451, "lat": 36.3520261, "lon": 127.3770568}, {"type": "node", "id": 4725236452, "lat": 36.3520588, "lon": 127.3769892}, {"type": "node", "id": 4725236453, "lat": 36.3520529, "lon": 127.3769683}, {"type": "node", "id": 4725236454, "lat": 36.3520489, "lon": 127.3769314}, {"type": "node", "id": 4725236455, "lat": 36.3520519, "lon": 127.3768945}, {"type": "node", "id": 4725236456, "lat": 36.3524822, "lon": 127.3768162}, {"type": "node", "id": 4725236457, "lat": 36.3524831, "lon": 127.3769937}, {"type": "node", "id": 4725236458, "lat": 36.3523074, "lon": 127.376995}, {"type": "node", "id": 4725236459, "lat": 36.3523065, "lon": 127.3768175}, {"type": "node", "id": 4725249471, "lat": 36.3491895, "lon": 127.3770568}, {"type": "node", "id": 4725249472, "lat": 36.3496685, "lon": 127.3773802}, {"type": "node", "id": 4725249473, "lat": 36.3505443, "lon": 127.3777776}, {"type": "node", "id": 4725249474, "lat": 36.3512796, "lon": 127.3784029}, {"type": "node", "id": 4725249476, "lat": 36.3525409, "lon": 127.3791833}, {"type": "node", "id": 4725249478, "lat": 36.3527247, "lon": 127.3792662}, {"type": "node", "id": 4725249479, "lat": 36.3529209, "lon": 127.3793283}, {"type": "node", "id": 4725249483, "lat": 36.3535871, "lon": 127.3794132}, {"type": "node", "id": 4725249488, "lat": 36.3496396, "lon": 127.3775132}, {"type": "node", "id": 4725249789, "lat": 36.3504659, "lon": 127.3780383}, {"type": "node", "id": 4725249791, "lat": 36.3514704, "lon": 127.3786956}, {"type": "node", "id": 4725249792, "lat": 36.3522482, "lon": 127.3792034}, {"type": "node", "id": 4725249795, "lat": 36.3531963, "lon": 127.379389}, {"type": "node", "id": 4725249797, "lat": 36.3527242, "lon": 127.3794509}, {"type": "node", "id": 4725252268, "lat": 36.3494892, "lon": 127.376226}, {"type": "node", "id": 4846863766, "lat": 36.3519472, "lon": 127.3770017}, {"type": "node", "id": 4846863767, "lat": 36.3520096, "lon": 127.376838}, {"type": "node", "id": 4846863768, "lat": 36.3520548, "lon": 127.3767626}, {"type": "node", "id": 4846863769, "lat": 36.35214, "lon": 127.3767286}, {"type": "node", "id": 4846863770, "lat": 36.352936, "lon": 127.3767318}, {"type": "node", "id": 4846863771, "lat": 36.3536789, "lon": 127.3767451}, {"type": "node", "id": 4846863772, "lat": 36.3552128, "lon": 127.3767406}, {"type": "node", "id": 4846863773, "lat": 36.3556867, "lon": 127.3767502}, {"type": "node", "id": 4846863774, "lat": 36.3557391, "lon": 127.3767926}, {"type": "node", "id": 4846863782, "lat": 36.3557365, "lon": 127.3791159}, {"type": "node", "id": 4846863783, "lat": 36.3556312, "lon": 127.3791727}, {"type": "node", "id": 4846863799, "lat": 36.3537618, "lon": 127.379206}, {"type": "node", "id": 4846863800, "lat": 36.3534964, "lon": 127.3792798}, {"type": "node", "id": 4846863801, "lat": 36.3534668, "lon": 127.3793044}, {"type": "node", "id": 4846863802, "lat": 36.3533952, "lon": 127.3793106}, {"type": "node", "id": 4846863804, "lat": 36.3533253, "lon": 127.3793021}, {"type": "node", "id": 4846863805, "lat": 36.3531536, "lon": 127.3792861}, {"type": "node", "id": 4846863806, "lat": 36.3529513, "lon": 127.3792375}, {"type": "node", "id": 4846863808, "lat": 36.352734, "lon": 127.3791653}, {"type": "node", "id": 4846863809, "lat": 36.352438, "lon": 127.3790406}, {"type": "node", "id": 4846863811, "lat": 36.3522404, "lon": 127.3789218}, {"type": "node", "id": 4846863812, "lat": 36.3516461, "lon": 127.3785415}, {"type": "node", "id": 4846863815, "lat": 36.3515818, "lon": 127.3784903}, {"type": "node", "id": 4846863816, "lat": 36.3515488, "lon": 127.3784596}, {"type": "node", "id": 4846863817, "lat": 36.3515208, "lon": 127.3784228}, {"type": "node", "id": 4846863818, "lat": 36.351506, "lon": 127.3783675}, {"type": "node", "id": 4846863819, "lat": 36.351506, "lon": 127.3782959}, {"type": "node", "id": 4846863820, "lat": 36.3515115, "lon": 127.3782425}, {"type": "node", "id": 4846863921, "lat": 36.3517308, "lon": 127.3776387}, {"type": "node", "id": 4846863944, "lat": 36.3510581, "lon": 127.3781709}, {"type": "node", "id": 4846863945, "lat": 36.3511616, "lon": 127.3781423}, {"type": "node", "id": 4846863947, "lat": 36.351222, "lon": 127.3781341}, {"type": "node", "id": 4846863948, "lat": 36.3512707, "lon": 127.3780876}, {"type": "node", "id": 4846863949, "lat": 36.3512986, "lon": 127.3780214}, {"type": "node", "id": 4846863956, "lat": 36.3525779, "lon": 127.3746203}, {"type": "node", "id": 4846863957, "lat": 36.3526275, "lon": 127.3744638}, {"type": "node", "id": 4846863958, "lat": 36.3526379, "lon": 127.3744048}, {"type": "node", "id": 4846863959, "lat": 36.3526296, "lon": 127.3743483}, {"type": "node", "id": 4846863960, "lat": 36.3526151, "lon": 127.3743124}, {"type": "node", "id": 4846863961, "lat": 36.3525924, "lon": 127.3742842}, {"type": "node", "id": 4846863962, "lat": 36.3514679, "lon": 127.3737655}, {"type": "node", "id": 4846863963, "lat": 36.351065, "lon": 127.3735808}, {"type": "node", "id": 4846863964, "lat": 36.3509451, "lon": 127.3735269}, {"type": "node", "id": 4846863965, "lat": 36.3509182, "lon": 127.3735243}, {"type": "node", "id": 4846863966, "lat": 36.3508852, "lon": 127.3735449}, {"type": "node", "id": 4846863967, "lat": 36.3508439, "lon": 127.3736244}, {"type": "node", "id": 4846863968, "lat": 36.3507405, "lon": 127.3738887}, {"type": "node", "id": 4846863969, "lat": 36.3503376, "lon": 127.3747046}, {"type": "node", "id": 4846863970, "lat": 36.3500772, "lon": 127.3752178}, {"type": "node", "id": 4846863971, "lat": 36.3499883, "lon": 127.3754282}, {"type": "node", "id": 4846863972, "lat": 36.3498643, "lon": 127.3756873}, {"type": "node", "id": 4846863973, "lat": 36.3497197, "lon": 127.375967}, {"type": "node", "id": 4846863974, "lat": 36.349482, "lon": 127.3764109}, {"type": "node", "id": 4846863975, "lat": 36.349296, "lon": 127.3767265}, {"type": "node", "id": 4846863976, "lat": 36.3491906, "lon": 127.3768804}, {"type": "node", "id": 4846863977, "lat": 36.3491662, "lon": 127.3769154}, {"type": "node", "id": 4846863979, "lat": 36.3496472, "lon": 127.3772368}, {"type": "node", "id": 4846863980, "lat": 36.349825, "lon": 127.3773688}, {"type": "node", "id": 4846867905, "lat": 36.3523704, "lon": 127.3756122}, {"type": "node", "id": 4849735025, "lat": 36.3493941, "lon": 127.3762736}, {"type": "node", "id": 4849735026, "lat": 36.3491621, "lon": 127.3766321}, {"type": "node", "id": 4849915955, "lat": 36.3513814, "lon": 127.3794251}, {"type": "node", "id": 4849915956, "lat": 36.3513867, "lon": 127.3788657}, {"type": "node", "id": 4849915957, "lat": 36.3513953, "lon": 127.3788377}, {"type": "node", "id": 4849915958, "lat": 36.3514378, "lon": 127.3788009}, {"type": "node", "id": 4849915960, "lat": 36.3514918, "lon": 127.3787906}, {"type": "node", "id": 4849915962, "lat": 36.3522336, "lon": 127.3793245}, {"type": "node", "id": 4849915964, "lat": 36.3523629, "lon": 127.3793906}, {"type": "node", "id": 4849915966, "lat": 36.3523928, "lon": 127.3793832}, {"type": "node", "id": 4849915967, "lat": 36.3524206, "lon": 127.3793758}, {"type": "node", "id": 4849915968, "lat": 36.3524505, "lon": 127.3793832}, {"type": "node", "id": 4849915969, "lat": 36.3526575, "lon": 127.3794796}, {"type": "node", "id": 4849915970, "lat": 36.3528088, "lon": 127.3795315}, {"type": "node", "id": 4849915971, "lat": 36.3529521, "lon": 127.3795784}, {"type": "node", "id": 4849915972, "lat": 36.3531193, "lon": 127.3796229}, {"type": "node", "id": 4849915973, "lat": 36.3532407, "lon": 127.3796452}, {"type": "node", "id": 4849915974, "lat": 36.353392, "lon": 127.3796625}, {"type": "node", "id": 4849915975, "lat": 36.3534338, "lon": 127.3796727}, {"type": "node", "id": 4849915976, "lat": 36.353475, "lon": 127.379686}, {"type": "node", "id": 4849915977, "lat": 36.3535037, "lon": 127.3796994}, {"type": "node", "id": 4849915978, "lat": 36.3536508, "lon": 127.3796927}, {"type": "node", "id": 4849915979, "lat": 36.3536778, "lon": 127.3796638}, {"type": "node", "id": 4849915980, "lat": 36.3537474, "lon": 127.3796463}, {"type": "node", "id": 4849915984, "lat": 36.3542358, "lon": 127.37965}, {"type": "node", "id": 4849915987, "lat": 36.3544394, "lon": 127.3796518}, {"type": "node", "id": 4849915990, "lat": 36.3556541, "lon": 127.379613}, {"type": "node", "id": 4849915994, "lat": 36.3557098, "lon": 127.379619}, {"type": "node", "id": 4849915995, "lat": 36.3557389, "lon": 127.379637}, {"type": "node", "id": 4849915996, "lat": 36.3557582, "lon": 127.3796611}, {"type": "node", "id": 4849915997, "lat": 36.3557739, "lon": 127.3796926}, {"type": "node", "id": 4849915998, "lat": 36.355786, "lon": 127.3797347}, {"type": "node", "id": 4849915999, "lat": 36.3557897, "lon": 127.3801283}, {"type": "node", "id": 4849916000, "lat": 36.355786, "lon": 127.3801749}, {"type": "node", "id": 4849916001, "lat": 36.3557703, "lon": 127.380208}, {"type": "node", "id": 4849916002, "lat": 36.3557497, "lon": 127.3802365}, {"type": "node", "id": 4849916003, "lat": 36.3557473, "lon": 127.3804334}, {"type": "node", "id": 4849916004, "lat": 36.3557655, "lon": 127.3804604}, {"type": "node", "id": 4849916005, "lat": 36.35578, "lon": 127.3804875}, {"type": "node", "id": 4849916006, "lat": 36.355786, "lon": 127.380528}, {"type": "node", "id": 4849916007, "lat": 36.3557812, "lon": 127.3812417}, {"type": "node", "id": 4849916008, "lat": 36.3557727, "lon": 127.3812763}, {"type": "node", "id": 4849916009, "lat": 36.3557594, "lon": 127.3813003}, {"type": "node", "id": 4849916010, "lat": 36.3557425, "lon": 127.3813094}, {"type": "node", "id": 4849916011, "lat": 36.3557413, "lon": 127.3814686}, {"type": "node", "id": 4849916012, "lat": 36.3557594, "lon": 127.3814987}, {"type": "node", "id": 4849916013, "lat": 36.3557703, "lon": 127.3815377}, {"type": "node", "id": 4849916014, "lat": 36.35578, "lon": 127.3815873}, {"type": "node", "id": 4849916015, "lat": 36.3557776, "lon": 127.3819119}, {"type": "node", "id": 4849916016, "lat": 36.3557793, "lon": 127.3827247}, {"type": "node", "id": 4849916017, "lat": 36.3557763, "lon": 127.3827528}, {"type": "node", "id": 4849916019, "lat": 36.3557375, "lon": 127.3828373}, {"type": "node", "id": 4849916421, "lat": 36.3556446, "lon": 127.3828708}, {"type": "node", "id": 4849916422, "lat": 36.3554544, "lon": 127.3828656}, {"type": "node", "id": 4849916425, "lat": 36.3553181, "lon": 127.3828224}, {"type": "node", "id": 4849916426, "lat": 36.3549401, "lon": 127.3828224}, {"type": "node", "id": 4849916433, "lat": 36.3547577, "lon": 127.3828224}, {"type": "node", "id": 4849916435, "lat": 36.3543872, "lon": 127.3828209}, {"type": "node", "id": 4849916438, "lat": 36.3542263, "lon": 127.3828582}, {"type": "node", "id": 4849916443, "lat": 36.3537361, "lon": 127.382851}, {"type": "node", "id": 4849916444, "lat": 36.3537047, "lon": 127.382845}, {"type": "node", "id": 4849916445, "lat": 36.3536865, "lon": 127.3828299}, {"type": "node", "id": 4849916446, "lat": 36.3536684, "lon": 127.3828059}, {"type": "node", "id": 4849916447, "lat": 36.3534977, "lon": 127.3828044}, {"type": "node", "id": 4849916448, "lat": 36.353476, "lon": 127.3828299}, {"type": "node", "id": 4849916449, "lat": 36.3534481, "lon": 127.3828435}, {"type": "node", "id": 4849916450, "lat": 36.3534118, "lon": 127.382851}, {"type": "node", "id": 4849916451, "lat": 36.3528818, "lon": 127.382845}, {"type": "node", "id": 4849916452, "lat": 36.3528636, "lon": 127.3828345}, {"type": "node", "id": 4849916453, "lat": 36.3528515, "lon": 127.3828194}, {"type": "node", "id": 4849916454, "lat": 36.352722, "lon": 127.3828179}, {"type": "node", "id": 4849916455, "lat": 36.3527099, "lon": 127.3828284}, {"type": "node", "id": 4849916456, "lat": 36.3526833, "lon": 127.382842}, {"type": "node", "id": 4849916457, "lat": 36.3522259, "lon": 127.382842}, {"type": "node", "id": 4849916458, "lat": 36.3522017, "lon": 127.382836}, {"type": "node", "id": 4849916459, "lat": 36.3521763, "lon": 127.3828224}, {"type": "node", "id": 4849916460, "lat": 36.3521569, "lon": 127.3828014}, {"type": "node", "id": 4849916461, "lat": 36.351973, "lon": 127.3827999}, {"type": "node", "id": 4849916462, "lat": 36.3519572, "lon": 127.3828059}, {"type": "node", "id": 4849916463, "lat": 36.3519367, "lon": 127.3828074}, {"type": "node", "id": 4849916464, "lat": 36.3515084, "lon": 127.3828134}, {"type": "node", "id": 4849916466, "lat": 36.3514345, "lon": 127.3828057}, {"type": "node", "id": 4849916467, "lat": 36.3514063, "lon": 127.3827892}, {"type": "node", "id": 4849916469, "lat": 36.35136, "lon": 127.3826837}, {"type": "node", "id": 4849916471, "lat": 36.3513643, "lon": 127.3821147}, {"type": "node", "id": 4849916472, "lat": 36.3513679, "lon": 127.3820772}, {"type": "node", "id": 4849916473, "lat": 36.3513812, "lon": 127.3820576}, {"type": "node", "id": 4849916474, "lat": 36.3513812, "lon": 127.3818999}, {"type": "node", "id": 4849916475, "lat": 36.3513703, "lon": 127.3818683}, {"type": "node", "id": 4849916476, "lat": 36.3513643, "lon": 127.3818172}, {"type": "node", "id": 4849916477, "lat": 36.3513655, "lon": 127.3809367}, {"type": "node", "id": 4849916478, "lat": 36.3513739, "lon": 127.3808285}, {"type": "node", "id": 4849916479, "lat": 36.3513897, "lon": 127.3807234}, {"type": "node", "id": 4849916480, "lat": 36.3513957, "lon": 127.3804003}, {"type": "node", "id": 4849916481, "lat": 36.3513969, "lon": 127.3802486}, {"type": "node", "id": 4849916482, "lat": 36.3513848, "lon": 127.3801945}, {"type": "node", "id": 4849916483, "lat": 36.3513739, "lon": 127.3801268}, {"type": "node", "id": 4849916484, "lat": 36.3513715, "lon": 127.3800607}, {"type": "node", "id": 4849916485, "lat": 36.3513715, "lon": 127.3796821}, {"type": "node", "id": 4849916486, "lat": 36.3513812, "lon": 127.379646}, {"type": "node", "id": 4849916487, "lat": 36.3513945, "lon": 127.3796295}, {"type": "node", "id": 4849916488, "lat": 36.3513967, "lon": 127.3794786}, {"type": "node", "id": 4850089844, "lat": 36.3518201, "lon": 127.3775115}, {"type": "node", "id": 4850200950, "lat": 36.3490847, "lon": 127.3763167}, {"type": "node", "id": 4850200951, "lat": 36.3493206, "lon": 127.3757626}, {"type": "node", "id": 4941372375, "lat": 36.3489847, "lon": 127.3823732}, {"type": "node", "id": 4941372376, "lat": 36.3505666, "lon": 127.382382}, {"type": "node", "id": 4941426879, "lat": 36.3497703, "lon": 127.3808495}, {"type": "node", "id": 4941426880, "lat": 36.3492563, "lon": 127.3808576}, {"type": "node", "id": 4941426881, "lat": 36.3491875, "lon": 127.380943}, {"type": "node", "id": 4941426882, "lat": 36.3491809, "lon": 127.381878}, {"type": "node", "id": 4941426883, "lat": 36.3492726, "lon": 127.3819065}, {"type": "node", "id": 4941426884, "lat": 36.349587, "lon": 127.3819024}, {"type": "node", "id": 4941426885, "lat": 36.3490565, "lon": 127.3782638}, {"type": "node", "id": 4941426886, "lat": 36.3483361, "lon": 127.378772}, {"type": "node", "id": 4941426887, "lat": 36.3483361, "lon": 127.3788371}, {"type": "node", "id": 4941426888, "lat": 36.3485299, "lon": 127.379236}, {"type": "node", "id": 4941426889, "lat": 36.3485644, "lon": 127.3792406}, {"type": "node", "id": 4941426890, "lat": 36.3504809, "lon": 127.3791391}, {"type": "node", "id": 4941426891, "lat": 36.3505026, "lon": 127.3806742}, {"type": "node", "id": 4941426892, "lat": 36.3504964, "lon": 127.3791961}, {"type": "node", "id": 4941426913, "lat": 36.3551723, "lon": 127.3803585}, {"type": "node", "id": 4941426917, "lat": 36.3516355, "lon": 127.3798349}, {"type": "node", "id": 4941426918, "lat": 36.3514974, "lon": 127.3798369}, {"type": "node", "id": 4941426919, "lat": 36.3514979, "lon": 127.3798952}, {"type": "node", "id": 4941426920, "lat": 36.3514627, "lon": 127.3798957}, {"type": "node", "id": 4941426921, "lat": 36.3514651, "lon": 127.3801485}, {"type": "node", "id": 4941426922, "lat": 36.3514924, "lon": 127.3801481}, {"type": "node", "id": 4941426923, "lat": 36.351493, "lon": 127.380217}, {"type": "node", "id": 4941426924, "lat": 36.3516387, "lon": 127.3802149}, {"type": "node", "id": 4941426925, "lat": 36.351638, "lon": 127.3801403}, {"type": "node", "id": 4941426926, "lat": 36.3516658, "lon": 127.3801399}, {"type": "node", "id": 4941426927, "lat": 36.3516634, "lon": 127.3798888}, {"type": "node", "id": 4941426928, "lat": 36.351636, "lon": 127.3798892}, {"type": "node", "id": 4941426929, "lat": 36.3517926, "lon": 127.3798041}, {"type": "node", "id": 4941426930, "lat": 36.3517348, "lon": 127.3799559}, {"type": "node", "id": 4941426931, "lat": 36.3517446, "lon": 127.3820153}, {"type": "node", "id": 4941426955, "lat": 36.3502143, "lon": 127.3807851}, {"type": "node", "id": 4941426956, "lat": 36.3502192, "lon": 127.379331}, {"type": "node", "id": 4941426958, "lat": 36.3493919, "lon": 127.3793932}, {"type": "node", "id": 4941426959, "lat": 36.3493176, "lon": 127.3794916}, {"type": "node", "id": 4941426960, "lat": 36.3491823, "lon": 127.3795868}, {"type": "node", "id": 4941426961, "lat": 36.3490715, "lon": 127.3795948}, {"type": "node", "id": 4941426962, "lat": 36.3486507, "lon": 127.3788122}, {"type": "node", "id": 4941426963, "lat": 36.3490289, "lon": 127.3795806}, {"type": "node", "id": 4941426964, "lat": 36.3489922, "lon": 127.3785529}, {"type": "node", "id": 4941426965, "lat": 36.3494318, "lon": 127.3793977}, {"type": "node", "id": 4941426966, "lat": 36.3494339, "lon": 127.3805332}, {"type": "node", "id": 4941426967, "lat": 36.3489934, "lon": 127.3796567}, {"type": "node", "id": 4941426968, "lat": 36.3491322, "lon": 127.3799396}, {"type": "node", "id": 4941426969, "lat": 36.349126, "lon": 127.3804551}, {"type": "node", "id": 4941426970, "lat": 36.3487915, "lon": 127.379111}, {"type": "node", "id": 4941426971, "lat": 36.3484156, "lon": 127.3794142}, {"type": "node", "id": 4941426972, "lat": 36.3497018, "lon": 127.3790342}, {"type": "node", "id": 4941426973, "lat": 36.3498037, "lon": 127.3792472}, {"type": "node", "id": 4941426974, "lat": 36.3498332, "lon": 127.3793992}, {"type": "node", "id": 4941426975, "lat": 36.3498366, "lon": 127.3805275}, {"type": "node", "id": 4943219359, "lat": 36.3518035, "lon": 127.3792237}, {"type": "node", "id": 4943219360, "lat": 36.351656, "lon": 127.3796094}, {"type": "node", "id": 4943219361, "lat": 36.3517199, "lon": 127.3796299}, {"type": "node", "id": 4943219363, "lat": 36.3520186, "lon": 127.3798218}, {"type": "node", "id": 4943219364, "lat": 36.3521313, "lon": 127.3795512}, {"type": "node", "id": 4943219365, "lat": 36.352097, "lon": 127.3794283}, {"type": "node", "id": 4943219366, "lat": 36.3520823, "lon": 127.3794192}, {"type": "node", "id": 4943219367, "lat": 36.3520892, "lon": 127.3794017}, {"type": "node", "id": 4943219368, "lat": 36.3518558, "lon": 127.3792787}, {"type": "node", "id": 4943219369, "lat": 36.3518632, "lon": 127.3792602}, {"type": "node", "id": 4943219370, "lat": 36.35179, "lon": 127.3791676}, {"type": "node", "id": 4943219371, "lat": 36.3516071, "lon": 127.3790362}, {"type": "node", "id": 4943219373, "lat": 36.351584, "lon": 127.3790516}, {"type": "node", "id": 4943219374, "lat": 36.3515193, "lon": 127.3790653}, {"type": "node", "id": 4943219375, "lat": 36.3514669, "lon": 127.3791214}, {"type": "node", "id": 4943219376, "lat": 36.3514709, "lon": 127.3791377}, {"type": "node", "id": 4943219377, "lat": 36.3514516, "lon": 127.3791563}, {"type": "node", "id": 4943219378, "lat": 36.3514534, "lon": 127.3793589}, {"type": "node", "id": 4943219379, "lat": 36.3515394, "lon": 127.3793562}, {"type": "node", "id": 4943219380, "lat": 36.3515394, "lon": 127.379235}, {"type": "node", "id": 4943219382, "lat": 36.3517112, "lon": 127.3793508}, {"type": "node", "id": 4943219435, "lat": 36.351185, "lon": 127.3807908}, {"type": "node", "id": 4943219436, "lat": 36.3511565, "lon": 127.3807377}, {"type": "node", "id": 4943219437, "lat": 36.3510252, "lon": 127.3807375}, {"type": "node", "id": 4943219438, "lat": 36.3510251, "lon": 127.3808364}, {"type": "node", "id": 4943219439, "lat": 36.3509523, "lon": 127.3808363}, {"type": "node", "id": 4943219440, "lat": 36.350952, "lon": 127.3810838}, {"type": "node", "id": 4943219441, "lat": 36.3511847, "lon": 127.3810842}, {"type": "node", "id": 4977436251, "lat": 36.3522564, "lon": 127.378039}, {"type": "node", "id": 4991558732, "lat": 36.3499332, "lon": 127.3767803, "tags": {"amenity": "nightclub", "name": "Ibiza"}}, {"type": "node", "id": 5760992865, "lat": 36.3524226, "lon": 127.3799864}, {"type": "node", "id": 5760992866, "lat": 36.3522287, "lon": 127.3798967}, {"type": "node", "id": 5760992868, "lat": 36.3522064, "lon": 127.3798412}, {"type": "node", "id": 5760992869, "lat": 36.3523149, "lon": 127.3795177}, {"type": "node", "id": 5760992870, "lat": 36.3523923, "lon": 127.3794785}, {"type": "node", "id": 5760992871, "lat": 36.3525528, "lon": 127.3795528}, {"type": "node", "id": 6018675641, "lat": 36.3488957, "lon": 127.3809017}, {"type": "node", "id": 6018675642, "lat": 36.3488889, "lon": 127.3818452}, {"type": "node", "id": 6018675643, "lat": 36.3487838, "lon": 127.381844}, {"type": "node", "id": 6018675644, "lat": 36.3487905, "lon": 127.3809005}, {"type": "node", "id": 6219947939, "lat": 36.3503489, "lon": 127.3804522}, {"type": "node", "id": 6219947940, "lat": 36.3504463, "lon": 127.3804526}, {"type": "node", "id": 6219947941, "lat": 36.3504476, "lon": 127.3798494}, {"type": "node", "id": 6219947942, "lat": 36.3503502, "lon": 127.3798491}, {"type": "node", "id": 6219947943, "lat": 36.3503565, "lon": 127.3797777}, {"type": "node", "id": 6219947944, "lat": 36.3504463, "lon": 127.379778}, {"type": "node", "id": 6219947945, "lat": 36.3504476, "lon": 127.3791869}, {"type": "node", "id": 6219947946, "lat": 36.3503577, "lon": 127.3791866}, {"type": "node", "id": 6219947947, "lat": 36.3499757, "lon": 127.3807022}, {"type": "node", "id": 6219947948, "lat": 36.3500755, "lon": 127.3807025}, {"type": "node", "id": 6219947949, "lat": 36.3500781, "lon": 127.3795066}, {"type": "node", "id": 6219947950, "lat": 36.3499783, "lon": 127.3795062}, {"type": "node", "id": 6219947951, "lat": 36.3495803, "lon": 127.3806955}, {"type": "node", "id": 6219947952, "lat": 36.3496791, "lon": 127.3806958}, {"type": "node", "id": 6219947953, "lat": 36.3496817, "lon": 127.3795025}, {"type": "node", "id": 6219947954, "lat": 36.349583, "lon": 127.3795022}, {"type": "node", "id": 6219947955, "lat": 36.3492827, "lon": 127.379701}, {"type": "node", "id": 6219947956, "lat": 36.3492805, "lon": 127.3806854}, {"type": "node", "id": 6219947957, "lat": 36.3491844, "lon": 127.3806851}, {"type": "node", "id": 6219947958, "lat": 36.3491865, "lon": 127.3797007}, {"type": "node", "id": 6219947959, "lat": 36.34989, "lon": 127.3788639}, {"type": "node", "id": 6219947960, "lat": 36.3500874, "lon": 127.3792742}, {"type": "node", "id": 6219947961, "lat": 36.3500007, "lon": 127.3793385}, {"type": "node", "id": 6219947962, "lat": 36.3498033, "lon": 127.3789282}, {"type": "node", "id": 6219947963, "lat": 36.3492078, "lon": 127.3784245}, {"type": "node", "id": 6219947964, "lat": 36.3496186, "lon": 127.3792782}, {"type": "node", "id": 6219947965, "lat": 36.3495434, "lon": 127.3793341}, {"type": "node", "id": 6219947966, "lat": 36.3491325, "lon": 127.3784803}, {"type": "node", "id": 6219947967, "lat": 36.3487813, "lon": 127.3784807}, {"type": "node", "id": 6219947968, "lat": 36.3492438, "lon": 127.3794419}, {"type": "node", "id": 6219947969, "lat": 36.3491522, "lon": 127.3795098}, {"type": "node", "id": 6219947970, "lat": 36.3486897, "lon": 127.3785487}, {"type": "node", "id": 6219947971, "lat": 36.3487216, "lon": 127.3793228}, {"type": "node", "id": 6219947972, "lat": 36.3488809, "lon": 127.3796538}, {"type": "node", "id": 6219947973, "lat": 36.3487927, "lon": 127.3797191}, {"type": "node", "id": 6219947974, "lat": 36.3486335, "lon": 127.3793882}, {"type": "node", "id": 6290325579, "lat": 36.3486727, "lon": 127.380801}, {"type": "node", "id": 6314357888, "lat": 36.3513438, "lon": 127.3786116}, {"type": "node", "id": 6988518843, "lat": 36.3504958, "lon": 127.380903}, {"type": "node", "id": 6988518844, "lat": 36.3501167, "lon": 127.3809212}, {"type": "node", "id": 6988518845, "lat": 36.350116, "lon": 127.3810779}, {"type": "node", "id": 6988518846, "lat": 36.3499717, "lon": 127.3811715}, {"type": "node", "id": 6988518847, "lat": 36.3499726, "lon": 127.3809191}, {"type": "node", "id": 6988518848, "lat": 36.3498827, "lon": 127.3809186}, {"type": "node", "id": 6988518849, "lat": 36.3498482, "lon": 127.3817981}, {"type": "node", "id": 6988518850, "lat": 36.3499756, "lon": 127.3817973}, {"type": "node", "id": 6988518851, "lat": 36.3499733, "lon": 127.3812399}, {"type": "node", "id": 6988518852, "lat": 36.3501086, "lon": 127.381239}, {"type": "node", "id": 6988518853, "lat": 36.3501187, "lon": 127.3818551}, {"type": "node", "id": 6988518854, "lat": 36.3502128, "lon": 127.3818087}, {"type": "node", "id": 6988518855, "lat": 36.3502131, "lon": 127.381253}, {"type": "node", "id": 6988518856, "lat": 36.350353, "lon": 127.3813097}, {"type": "node", "id": 6988518857, "lat": 36.3503491, "lon": 127.3817945}, {"type": "node", "id": 6988518858, "lat": 36.350464, "lon": 127.3817959}, {"type": "node", "id": 6988518859, "lat": 36.350468, "lon": 127.3813072}, {"type": "node", "id": 6988518860, "lat": 36.3502114, "lon": 127.3812096}, {"type": "node", "id": 6988518861, "lat": 36.3502118, "lon": 127.3811515}, {"type": "node", "id": 6988518862, "lat": 36.3504942, "lon": 127.3811543}, {"type": "node", "id": 7043170752, "lat": 36.3494831, "lon": 127.3776775}, {"type": "node", "id": 7043170753, "lat": 36.3493905, "lon": 127.3779038}, {"type": "node", "id": 7043170754, "lat": 36.3491405, "lon": 127.3777462}, {"type": "node", "id": 7043170755, "lat": 36.349112, "lon": 127.3778159}, {"type": "node", "id": 7043170756, "lat": 36.3490089, "lon": 127.3777508}, {"type": "node", "id": 7043170757, "lat": 36.34913, "lon": 127.3774549}, {"type": "node", "id": 7330364147, "lat": 36.3488703, "lon": 127.3805858}, {"type": "node", "id": 7330364148, "lat": 36.3488571, "lon": 127.3806511}, {"type": "node", "id": 7330364149, "lat": 36.348792, "lon": 127.3807005}, {"type": "node", "id": 7330364150, "lat": 36.3486095, "lon": 127.3803301}, {"type": "node", "id": 7330364151, "lat": 36.3487077, "lon": 127.3802556}, {"type": "node", "id": 7330364152, "lat": 36.350467, "lon": 127.3805159}, {"type": "node", "id": 7330364153, "lat": 36.3503613, "lon": 127.3805164}, {"type": "node", "id": 7330364154, "lat": 36.3503619, "lon": 127.3807084}, {"type": "node", "id": 7330364155, "lat": 36.3504677, "lon": 127.3807078}, {"type": "node", "id": 8946214857, "lat": 36.3534702, "lon": 127.3795857}, {"type": "node", "id": 8946214860, "lat": 36.353587, "lon": 127.3795805}, {"type": "node", "id": 8971225580, "lat": 36.348685, "lon": 127.3769041}, {"type": "node", "id": 8971251518, "lat": 36.3486578, "lon": 127.3767097}, {"type": "node", "id": 9864834817, "lat": 36.3509885, "lon": 127.3769116, "tags": {"amenity": "nightclub", "name:en": "Another"}}, {"type": "node", "id": 11013305576, "lat": 36.3490873, "lon": 127.3767824, "tags": {"barrier": "kerb", "kerb": "lowered", "tactile_paving": "yes", "wheelchair": "yes"}}, {"type": "node", "id": 11013305578, "lat": 36.3490967, "lon": 127.3764557}, {"type": "node", "id": 11013305579, "lat": 36.3493186, "lon": 127.3761215}, {"type": "node", "id": 11013305580, "lat": 36.3497916, "lon": 127.3752026, "tags": {"barrier": "kerb", "kerb": "lowered", "tactile_paving": "yes", "wheelchair": "yes"}}, {"type": "node", "id": 11338234355, "lat": 36.3500715, "lon": 127.3774593, "tags": {"bus": "yes", "highway": "bus_stop", "name": "\uc740\ud558\uc218\ub124\uac70\ub9ac", "name:ko": "\uc740\ud558\uc218\ub124\uac70\ub9ac", "public_transport": "platform", "ref": "32060", "shelter": "yes"}}, {"type": "node", "id": 11338234397, "lat": 36.3503582, "lon": 127.3780939, "tags": {"bus": "yes", "highway": "bus_stop", "name": "\uc740\ud558\uc218\ub124\uac70\ub9ac", "name:ko": "\uc740\ud558\uc218\ub124\uac70\ub9ac", "public_transport": "platform", "ref": "32080", "shelter": "yes"}}, {"type": "node", "id": 11338234398, "lat": 36.3507927, "lon": 127.3778974, "tags": {"bus": "yes", "highway": "bus_stop", "name": "\uc740\ud558\uc218\ub124\uac70\ub9ac", "name:ko": "\uc740\ud558\uc218\ub124\uac70\ub9ac", "public_transport": "platform", "ref": "32070", "shelter": "yes"}}, {"type": "node", "id": 11338234400, "lat": 36.3517133, "lon": 127.3771224, "tags": {"bus": "yes", "highway": "bus_stop", "name": "\uac24\ub7ec\ub9ac\uc544\ud0c0\uc784\uc6d4\ub4dc", "name:ko": "\uac24\ub7ec\ub9ac\uc544\ud0c0\uc784\uc6d4\ub4dc", "public_transport": "platform", "ref": "32050", "shelter": "yes"}}, {"type": "node", "id": 11338234401, "lat": 36.3518962, "lon": 127.3770789, "tags": {"bus": "yes", "highway": "bus_stop", "name": "\uac24\ub7ec\ub9ac\uc544\ud0c0\uc784\uc6d4\ub4dc", "name:ko": "\uac24\ub7ec\ub9ac\uc544\ud0c0\uc784\uc6d4\ub4dc", "public_transport": "platform", "ref": "32040", "shelter": "yes"}}, {"type": "node", "id": 11503255906, "lat": 36.348063, "lon": 127.3789182}, {"type": "node", "id": 11503255907, "lat": 36.3481107, "lon": 127.378923}, {"type": "node", "id": 11503255908, "lat": 36.3489075, "lon": 127.3805556}, {"type": "node", "id": 11503255909, "lat": 36.3489379, "lon": 127.3809768}, {"type": "node", "id": 11503255910, "lat": 36.3489369, "lon": 127.3818644}, {"type": "node", "id": 11503255911, "lat": 36.3489065, "lon": 127.3819195}, {"type": "node", "id": 11503255912, "lat": 36.3471845, "lon": 127.3819244}, {"type": "node", "id": 11503255913, "lat": 36.3471261, "lon": 127.3819102}, {"type": "node", "id": 11503255914, "lat": 36.3470434, "lon": 127.3818483}, {"type": "node", "id": 11503255915, "lat": 36.3460771, "lon": 127.3804538}, {"type": "node", "id": 11503255916, "lat": 36.3460856, "lon": 127.3803901}, {"type": "node", "id": 11503255935, "lat": 36.3557066, "lon": 127.382857, "tags": {"barrier": "kerb", "kerb": "lowered", "tactile_paving": "yes"}}, {"type": "node", "id": 11503255939, "lat": 36.3557627, "lon": 127.3827941, "tags": {"barrier": "kerb", "kerb": "lowered", "tactile_paving": "yes"}}, {"type": "node", "id": 11773714356, "lat": 36.3491408, "lon": 127.3809157}, {"type": "node", "id": 11773714357, "lat": 36.3491835, "lon": 127.3808666}, {"type": "node", "id": 11773714358, "lat": 36.3504786, "lon": 127.3808583}, {"type": "node", "id": 11773714359, "lat": 36.3505173, "lon": 127.3818926}, {"type": "node", "id": 11773714360, "lat": 36.3504931, "lon": 127.3819456}, {"type": "node", "id": 11773714361, "lat": 36.349179, "lon": 127.3819262}, {"type": "node", "id": 11773714362, "lat": 36.3491405, "lon": 127.3818731}, {"type": "node", "id": 11773714363, "lat": 36.3501639, "lon": 127.3818822}, {"type": "node", "id": 11773714364, "lat": 36.3501809, "lon": 127.3818776}, {"type": "node", "id": 11773714365, "lat": 36.3501111, "lon": 127.3818358}, {"type": "node", "id": 11773714366, "lat": 36.3501311, "lon": 127.3818703}, {"type": "node", "id": 11773714367, "lat": 36.3501467, "lon": 127.3818797}, {"type": "node", "id": 11773714368, "lat": 36.3501957, "lon": 127.3818664}, {"type": "node", "id": 11773758769, "lat": 36.3502067, "lon": 127.3818499}, {"type": "node", "id": 11773758770, "lat": 36.3502128, "lon": 127.38183}, {"type": "node", "id": 11773758771, "lat": 36.3501344, "lon": 127.3810781}, {"type": "node", "id": 11773758772, "lat": 36.3501341, "lon": 127.3811724}, {"type": "node", "id": 11773758773, "lat": 36.3498448, "lon": 127.3809876}, {"type": "node", "id": 11773758774, "lat": 36.3501536, "lon": 127.3809215}, {"type": "node", "id": 11773758775, "lat": 36.3501537, "lon": 127.3808996}, {"type": "node", "id": 11773758776, "lat": 36.3505117, "lon": 127.3808913}, {"type": "node", "id": 11773758777, "lat": 36.3483098, "lon": 127.3788274}, {"type": "node", "id": 11773758778, "lat": 36.3483319, "lon": 127.3787282}, {"type": "node", "id": 11773758779, "lat": 36.3490396, "lon": 127.378235}, {"type": "node", "id": 11773758780, "lat": 36.3504858, "lon": 127.3791264}, {"type": "node", "id": 11773758781, "lat": 36.3505107, "lon": 127.3791923}, {"type": "node", "id": 11773758782, "lat": 36.3505135, "lon": 127.3806795}, {"type": "node", "id": 11773758783, "lat": 36.349142, "lon": 127.3807042}, {"type": "node", "id": 11773758784, "lat": 36.3490757, "lon": 127.3803939}, {"type": "node", "id": 11773758785, "lat": 36.3489544, "lon": 127.3801313}, {"type": "node", "id": 11773758786, "lat": 36.350474, "lon": 127.3807162}, {"type": "node", "id": 11773758787, "lat": 36.3505261, "lon": 127.3791}, {"type": "node", "id": 11773758802, "lat": 36.3489815, "lon": 127.3827383, "tags": {"crossing": "traffic_signals", "crossing:island": "no", "crossing:markings": "zebra:double", "highway": "crossing", "kerb": "lowered", "tactile_paving": "no", "traffic_signals:countdown": "yes"}}, {"type": "node", "id": 11773758812, "lat": 36.350566, "lon": 127.3828115, "tags": {"crossing": "uncontrolled", "highway": "crossing", "kerb": "lowered"}}, {"type": "node", "id": 11773758818, "lat": 36.3513334, "lon": 127.3827532, "tags": {"crossing": "traffic_signals", "crossing:island": "no", "crossing:markings": "zebra:double", "highway": "crossing", "kerb": "lowered", "tactile_paving": "no", "traffic_signals:countdown": "yes"}}, {"type": "node", "id": 11773758819, "lat": 36.3513791, "lon": 127.3827515, "tags": {"barrier": "kerb", "kerb": "lowered", "tactile_paving": "yes"}}, {"type": "node", "id": 11773758828, "lat": 36.3514576, "lon": 127.3828104, "tags": {"barrier": "kerb", "kerb": "lowered", "tactile_paving": "yes"}}, {"type": "node", "id": 11977640727, "lat": 36.3513838, "lon": 127.3827625}, {"type": "node", "id": 11977640728, "lat": 36.3513693, "lon": 127.3827283}, {"type": "node", "id": 11993626667, "lat": 36.3490518, "lon": 127.3767123}, {"type": "node", "id": 11993655688, "lat": 36.3483257, "lon": 127.3772655}, {"type": "node", "id": 11993655689, "lat": 36.3484868, "lon": 127.3771671}, {"type": "node", "id": 11993655690, "lat": 36.3485499, "lon": 127.3771299}, {"type": "node", "id": 11993655691, "lat": 36.3486035, "lon": 127.3771111}, {"type": "node", "id": 11993655692, "lat": 36.3486885, "lon": 127.3770908, "tags": {"crossing": "uncontrolled", "crossing:island": "no", "crossing:markings": "zebra:double", "highway": "crossing", "kerb": "lowered", "tactile_paving": "no", "traffic_calming": "table"}}, {"type": "node", "id": 11993655693, "lat": 36.3487796, "lon": 127.3770924}, {"type": "node", "id": 11993655694, "lat": 36.3488649, "lon": 127.3771152}, {"type": "node", "id": 11993655695, "lat": 36.3489427, "lon": 127.3771608}, {"type": "node", "id": 11993655698, "lat": 36.3491414, "lon": 127.3769167}, {"type": "node", "id": 11993655699, "lat": 36.3490572, "lon": 127.3768429}, {"type": "node", "id": 11993655700, "lat": 36.3490161, "lon": 127.3767893}, {"type": "node", "id": 11993655701, "lat": 36.3490021, "lon": 127.3767182, "tags": {"crossing": "uncontrolled", "crossing:island": "no", "crossing:markings": "zebra:double", "highway": "crossing", "kerb": "lowered", "tactile_paving": "no", "traffic_calming": "table"}}, {"type": "node", "id": 11993655702, "lat": 36.3489988, "lon": 127.3766149}, {"type": "node", "id": 11993655703, "lat": 36.3490118, "lon": 127.3765184}, {"type": "node", "id": 11993655704, "lat": 36.3490734, "lon": 127.3763977}, {"type": "node", "id": 11993655705, "lat": 36.3490795, "lon": 127.3768625}, {"type": "node", "id": 11993655706, "lat": 36.3483768, "lon": 127.3776329}, {"type": "node", "id": 11993714407, "lat": 36.3491114, "lon": 127.3809002}, {"type": "node", "id": 11993714408, "lat": 36.3491065, "lon": 127.3818827}, {"type": "node", "id": 11993714409, "lat": 36.3491171, "lon": 127.3819213}, {"type": "node", "id": 11993714410, "lat": 36.3491499, "lon": 127.3819508}, {"type": "node", "id": 11993714416, "lat": 36.349111, "lon": 127.381899}, {"type": "node", "id": 11993714419, "lat": 36.3491122, "lon": 127.3808872}, {"type": "node", "id": 11993714420, "lat": 36.349154, "lon": 127.3808188}, {"type": "node", "id": 11993714421, "lat": 36.3505009, "lon": 127.380823}, {"type": "node", "id": 11993714422, "lat": 36.3491156, "lon": 127.380723}, {"type": "node", "id": 11993714423, "lat": 36.349096, "lon": 127.3806152}, {"type": "node", "id": 11993714424, "lat": 36.3490698, "lon": 127.3805116}, {"type": "node", "id": 11993714425, "lat": 36.3490321, "lon": 127.380415}, {"type": "node", "id": 11993714426, "lat": 36.3489838, "lon": 127.3803124}, {"type": "node", "id": 11993714427, "lat": 36.3489699, "lon": 127.3801965}, {"type": "node", "id": 11993714428, "lat": 36.3487972, "lon": 127.3798377}, {"type": "node", "id": 11993714429, "lat": 36.3487112, "lon": 127.3797432}, {"type": "node", "id": 11993714430, "lat": 36.3485491, "lon": 127.37942}, {"type": "node", "id": 11993714431, "lat": 36.3485573, "lon": 127.3793681}, {"type": "node", "id": 11993714432, "lat": 36.3491225, "lon": 127.3807294}, {"type": "node", "id": 11993714433, "lat": 36.3491224, "lon": 127.380852}, {"type": "node", "id": 11993714434, "lat": 36.3491317, "lon": 127.3807379}, {"type": "node", "id": 11993714435, "lat": 36.3491225, "lon": 127.3807479, "tags": {"barrier": "kerb", "kerb": "lowered", "tactile_paving": "no", "wheelchair": "yes"}}, {"type": "node", "id": 11993714436, "lat": 36.3491224, "lon": 127.3808202, "tags": {"barrier": "kerb", "kerb": "lowered", "tactile_paving": "no", "wheelchair": "yes"}}, {"type": "node", "id": 11993714437, "lat": 36.3489663, "lon": 127.3809026, "tags": {"barrier": "kerb", "kerb": "lowered", "tactile_paving": "yes", "wheelchair": "yes"}}, {"type": "node", "id": 11993714438, "lat": 36.3480919, "lon": 127.3789042}, {"type": "node", "id": 11993714439, "lat": 36.3481185, "lon": 127.3789106}, {"type": "node", "id": 11993714440, "lat": 36.3489214, "lon": 127.380541}, {"type": "node", "id": 11993714441, "lat": 36.3489349, "lon": 127.3805897}, {"type": "node", "id": 11993714442, "lat": 36.3489305, "lon": 127.3806378}, {"type": "node", "id": 11993714443, "lat": 36.3489214, "lon": 127.3806702}, {"type": "node", "id": 11993714444, "lat": 36.3489007, "lon": 127.3807153}, {"type": "node", "id": 11993714445, "lat": 36.3488701, "lon": 127.3807348}, {"type": "node", "id": 11993714446, "lat": 36.3487211, "lon": 127.3807357}, {"type": "node", "id": 11993714447, "lat": 36.3485198, "lon": 127.3797235}, {"type": "node", "id": 11993714448, "lat": 36.3482079, "lon": 127.3790885}, {"type": "node", "id": 11993714449, "lat": 36.3482217, "lon": 127.3791821}, {"type": "node", "id": 11993714450, "lat": 36.3484682, "lon": 127.3796809}, {"type": "node", "id": 11993714465, "lat": 36.3504895, "lon": 127.3819673}, {"type": "node", "id": 11993714466, "lat": 36.3505205, "lon": 127.3819346}, {"type": "node", "id": 11993714467, "lat": 36.3505196, "lon": 127.3808547}, {"type": "node", "id": 11993719675, "lat": 36.3489498, "lon": 127.3809594}, {"type": "node", "id": 11993719676, "lat": 36.3489041, "lon": 127.3808811}, {"type": "node", "id": 11993719677, "lat": 36.3487019, "lon": 127.3808811}, {"type": "node", "id": 11993719678, "lat": 36.3489204, "lon": 127.3819327, "tags": {"barrier": "kerb", "kerb": "lowered", "tactile_paving": "yes", "wheelchair": "yes"}}, {"type": "node", "id": 11993719681, "lat": 36.3489321, "lon": 127.3809103}, {"type": "node", "id": 11993719682, "lat": 36.3489542, "lon": 127.3806346, "tags": {"barrier": "kerb", "kerb": "lowered", "tactile_paving": "yes", "wheelchair": "yes"}}, {"type": "node", "id": 11993719683, "lat": 36.3490775, "lon": 127.3806177, "tags": {"barrier": "kerb", "kerb": "lowered", "tactile_paving": "no", "wheelchair": "yes"}}, {"type": "node", "id": 11993719684, "lat": 36.3491114, "lon": 127.3806999}, {"type": "node", "id": 11993719685, "lat": 36.3489457, "lon": 127.3806606, "tags": {"barrier": "kerb", "kerb": "lowered", "tactile_paving": "yes", "wheelchair": "yes"}}, {"type": "node", "id": 11993719686, "lat": 36.3489362, "lon": 127.3806825, "tags": {"barrier": "kerb", "kerb": "lowered", "tactile_paving": "yes", "wheelchair": "yes"}}, {"type": "node", "id": 11993719687, "lat": 36.3490918, "lon": 127.3808592, "tags": {"barrier": "kerb", "kerb": "lowered", "tactile_paving": "no", "wheelchair": "yes"}}, {"type": "node", "id": 11993719688, "lat": 36.3490879, "lon": 127.3809002, "tags": {"barrier": "kerb", "kerb": "lowered", "tactile_paving": "no", "wheelchair": "yes"}}, {"type": "node", "id": 11993719689, "lat": 36.3491225, "lon": 127.3807819, "tags": {"crossing": "traffic_signals", "crossing:island": "no", "crossing:markings": "zebra", "highway": "crossing", "kerb": "lowered", "tactile_paving": "no", "traffic_signals:arrow": "no", "traffic_signals:countdown": "yes", "traffic_signals:minimap": "no"}}, {"type": "node", "id": 11993719690, "lat": 36.34899, "lon": 127.3806297, "tags": {"crossing": "traffic_signals", "crossing:island": "no", "crossing:markings": "zebra:double", "highway": "crossing", "kerb": "lowered", "tactile_paving": "no", "traffic_signals:arrow": "no", "traffic_signals:countdown": "yes", "traffic_signals:minimap": "no"}}, {"type": "node", "id": 11993719691, "lat": 36.3489367, "lon": 127.380767, "tags": {"crossing": "traffic_signals", "crossing:island": "no", "crossing:markings": "zebra", "highway": "crossing", "kerb": "lowered", "tactile_paving": "no", "traffic_signals:arrow": "no", "traffic_signals:countdown": "yes", "traffic_signals:minimap": "no"}}, {"type": "node", "id": 11993719692, "lat": 36.3490958, "lon": 127.3807191, "tags": {"barrier": "kerb", "kerb": "lowered", "tactile_paving": "no", "wheelchair": "yes"}}, {"type": "node", "id": 11993719693, "lat": 36.349052, "lon": 127.3827399, "tags": {"crossing": "traffic_signals", "crossing:island": "no", "crossing:markings": "zebra:double", "highway": "crossing", "kerb": "lowered", "tactile_paving": "no", "traffic_signals:countdown": "yes"}}, {"type": "node", "id": 11993719694, "lat": 36.3490542, "lon": 127.3823756}, {"type": "node", "id": 11993719695, "lat": 36.3490547, "lon": 127.3820006}, {"type": "node", "id": 11993719696, "lat": 36.3490586, "lon": 127.3809008, "tags": {"crossing": "traffic_signals", "crossing:island": "no", "crossing:markings": "zebra", "highway": "crossing", "kerb": "lowered", "tactile_paving": "no", "traffic_signals:arrow": "no", "traffic_signals:countdown": "yes", "traffic_signals:minimap": "no"}}, {"type": "node", "id": 11993719697, "lat": 36.3490581, "lon": 127.380784}, {"type": "node", "id": 11993719698, "lat": 36.3490392, "lon": 127.380623, "tags": {"crossing": "traffic_signals", "crossing:island": "no", "crossing:markings": "zebra:double", "highway": "crossing", "kerb": "lowered", "tactile_paving": "no", "traffic_signals:arrow": "no", "traffic_signals:countdown": "yes", "traffic_signals:minimap": "no"}}, {"type": "node", "id": 11993719699, "lat": 36.3490192, "lon": 127.3805157}, {"type": "node", "id": 11993719700, "lat": 36.3489344, "lon": 127.3803165}, {"type": "node", "id": 11993719701, "lat": 36.3484628, "lon": 127.3793761}, {"type": "node", "id": 11993719702, "lat": 36.3481638, "lon": 127.3787597}, {"type": "node", "id": 11993719703, "lat": 36.3478268, "lon": 127.378062}, {"type": "node", "id": 11993719704, "lat": 36.3476938, "lon": 127.3777911}, {"type": "node", "id": 11993719705, "lat": 36.3490375, "lon": 127.3807854, "tags": {"crossing": "traffic_signals", "crossing:island": "no", "crossing:markings": "zebra", "highway": "crossing", "kerb": "lowered", "tactile_paving": "no", "traffic_signals:arrow": "no", "traffic_signals:countdown": "yes", "traffic_signals:minimap": "no"}}, {"type": "node", "id": 11993719709, "lat": 36.3490569, "lon": 127.3807633, "tags": {"crossing": "traffic_signals", "crossing:island": "no", "crossing:markings": "zebra", "highway": "crossing", "kerb": "lowered", "tactile_paving": "no", "traffic_signals:arrow": "no", "traffic_signals:countdown": "yes", "traffic_signals:minimap": "no"}}, {"type": "node", "id": 11993719710, "lat": 36.349059, "lon": 127.3808146, "tags": {"crossing": "traffic_signals", "crossing:island": "no", "crossing:markings": "zebra", "highway": "crossing", "kerb": "lowered", "tactile_paving": "no", "traffic_signals:arrow": "no", "traffic_signals:countdown": "yes", "traffic_signals:minimap": "no"}}, {"type": "node", "id": 11993719711, "lat": 36.3489948, "lon": 127.3807274, "tags": {"crossing": "traffic_signals", "crossing:island": "no", "crossing:markings": "zebra", "highway": "crossing", "kerb": "lowered", "tactile_paving": "no", "traffic_signals:arrow": "no", "traffic_signals:countdown": "yes", "traffic_signals:minimap": "no"}}, {"type": "node", "id": 11993719712, "lat": 36.3489956, "lon": 127.380833, "tags": {"crossing": "traffic_signals", "crossing:island": "no", "crossing:markings": "zebra", "highway": "crossing", "kerb": "lowered", "tactile_paving": "no", "traffic_signals:arrow": "no", "traffic_signals:countdown": "yes", "traffic_signals:minimap": "no"}}, {"type": "node", "id": 11993719713, "lat": 36.3489964, "lon": 127.3807869}, {"type": "node", "id": 11993719714, "lat": 36.3490584, "lon": 127.3809576, "tags": {"highway": "traffic_signals", "traffic_signals": "traffic_lights", "traffic_signals:direction": "forward"}}, {"type": "node", "id": 11993719715, "lat": 36.3491643, "lon": 127.380782, "tags": {"highway": "traffic_signals", "traffic_signals": "traffic_lights", "traffic_signals:direction": "forward"}}, {"type": "node", "id": 11993719716, "lat": 36.3489371, "lon": 127.3808256, "tags": {"crossing": "traffic_signals", "crossing:island": "no", "crossing:markings": "zebra", "highway": "crossing", "kerb": "lowered", "tactile_paving": "no", "traffic_signals:arrow": "no", "traffic_signals:countdown": "yes", "traffic_signals:minimap": "no"}}, {"type": "node", "id": 11993719717, "lat": 36.3487341, "lon": 127.3807703}, {"type": "node", "id": 11993719718, "lat": 36.3487329, "lon": 127.3808259}, {"type": "node", "id": 11993775230, "lat": 36.3489373, "lon": 127.380867, "tags": {"barrier": "kerb", "kerb": "lowered", "tactile_paving": "yes", "wheelchair": "yes"}}, {"type": "node", "id": 11993775263, "lat": 36.3489554, "lon": 127.3808787, "tags": {"barrier": "kerb", "kerb": "lowered", "tactile_paving": "yes", "wheelchair": "yes"}}, {"type": "node", "id": 11993775264, "lat": 36.3489475, "lon": 127.3818811}, {"type": "node", "id": 11993775265, "lat": 36.3482331, "lon": 127.3789025, "tags": {"highway": "traffic_signals", "traffic_signals": "traffic_lights", "traffic_signals:countdown": "no", "traffic_signals:direction": "forward"}}, {"type": "node", "id": 11993775266, "lat": 36.3480679, "lon": 127.3786949, "tags": {"highway": "traffic_signals", "traffic_signals": "traffic_lights", "traffic_signals:countdown": "no", "traffic_signals:direction": "forward"}}, {"type": "node", "id": 11993777772, "lat": 36.3485504, "lon": 127.3794085}, {"type": "node", "id": 11993777775, "lat": 36.3485151, "lon": 127.3793339, "tags": {"crossing": "uncontrolled", "crossing:island": "no", "crossing:markings": "zebra", "highway": "crossing", "tactile_paving": "no"}}, {"type": "node", "id": 11993777778, "lat": 36.3477921, "lon": 127.3778704}, {"type": "node", "id": 11993777779, "lat": 36.3477921, "lon": 127.3778164}, {"type": "node", "id": 11993777780, "lat": 36.3478145, "lon": 127.3777856}, {"type": "node", "id": 11993777781, "lat": 36.3479398, "lon": 127.3776932}, {"type": "node", "id": 11993777782, "lat": 36.3481073, "lon": 127.3775669}, {"type": "node", "id": 11993777783, "lat": 36.3485168, "lon": 127.3772125}, {"type": "node", "id": 11993777784, "lat": 36.3485763, "lon": 127.3771771}, {"type": "node", "id": 11993777785, "lat": 36.3486805, "lon": 127.377154}, {"type": "node", "id": 11993777786, "lat": 36.3487575, "lon": 127.3771518}, {"type": "node", "id": 11993777788, "lat": 36.3478432, "lon": 127.3779716, "tags": {"barrier": "kerb", "kerb": "lowered", "tactile_paving": "no", "wheelchair": "yes"}}, {"type": "node", "id": 11993777789, "lat": 36.3478712, "lon": 127.3780273, "tags": {"crossing": "uncontrolled", "crossing:island": "no", "crossing:markings": "zebra", "highway": "crossing", "kerb": "lowered", "tactile_paving": "no"}}, {"type": "node", "id": 11993777792, "lat": 36.3482161, "lon": 127.3787223, "tags": {"crossing": "uncontrolled", "crossing:island": "no", "crossing:markings": "zebra", "highway": "crossing", "kerb": "lowered", "tactile_paving": "no"}}, {"type": "node", "id": 11993777802, "lat": 36.3486919, "lon": 127.3771537}, {"type": "node", "id": 11994626507, "lat": 36.3490641, "lon": 127.382942}, {"type": "node", "id": 11994626537, "lat": 36.3490293, "lon": 127.3781558}, {"type": "node", "id": 11994626538, "lat": 36.3496885, "lon": 127.3819574, "tags": {"barrier": "kerb", "kerb": "lowered", "tactile_paving": "no", "wheelchair": "yes"}}, {"type": "node", "id": 11994626539, "lat": 36.3495559, "lon": 127.3819558, "tags": {"barrier": "kerb", "kerb": "lowered", "tactile_paving": "no", "wheelchair": "yes"}}, {"type": "node", "id": 11994626547, "lat": 36.3496163, "lon": 127.3819323, "tags": {"barrier": "gate", "material": "metal"}}, {"type": "node", "id": 11994626567, "lat": 36.3512008, "lon": 127.3819513, "tags": {"barrier": "kerb", "kerb": "lowered", "tactile_paving": "no", "wheelchair": "yes"}}, {"type": "node", "id": 11994632672, "lat": 36.3512139, "lon": 127.3807812}, {"type": "node", "id": 11994632673, "lat": 36.3511676, "lon": 127.3805951}, {"type": "node", "id": 11994632674, "lat": 36.3512107, "lon": 127.3796296}, {"type": "node", "id": 11994632675, "lat": 36.3511663, "lon": 127.3802254}, {"type": "node", "id": 11994632676, "lat": 36.3512107, "lon": 127.3800871}, {"type": "node", "id": 11999198673, "lat": 36.3514326, "lon": 127.3819379}, {"type": "node", "id": 11999198674, "lat": 36.3513963, "lon": 127.3818706}, {"type": "node", "id": 11999198675, "lat": 36.3513962, "lon": 127.3809444}, {"type": "node", "id": 11999198676, "lat": 36.3514185, "lon": 127.3807517}, {"type": "node", "id": 11999198677, "lat": 36.3514194, "lon": 127.3802474}, {"type": "node", "id": 11999198678, "lat": 36.3513998, "lon": 127.3801201}, {"type": "node", "id": 11999198679, "lat": 36.3514016, "lon": 127.3797092}, {"type": "node", "id": 11999198680, "lat": 36.3514326, "lon": 127.3796893}, {"type": "node", "id": 11999198681, "lat": 36.3520035, "lon": 127.3800579}, {"type": "node", "id": 11999198682, "lat": 36.3520041, "lon": 127.3818997}, {"type": "node", "id": 11999198683, "lat": 36.3519799, "lon": 127.3819414}, {"type": "node", "id": 11999198684, "lat": 36.3519835, "lon": 127.3800244}, {"type": "node", "id": 11999198686, "lat": 36.3512137, "lon": 127.3811531}, {"type": "node", "id": 11999198687, "lat": 36.3513953, "lon": 127.3811544}, {"type": "node", "id": 11999198690, "lat": 36.3517405, "lon": 127.3811558, "tags": {"crossing": "uncontrolled", "crossing:island": "no", "crossing:markings": "zebra", "highway": "crossing", "kerb": "lowered", "tactile_paving": "no"}}, {"type": "node", "id": 11999198691, "lat": 36.3520038, "lon": 127.3811558}, {"type": "node", "id": 11999198692, "lat": 36.3521601, "lon": 127.381158}, {"type": "node", "id": 11999198695, "lat": 36.3521917, "lon": 127.3801693}, {"type": "node", "id": 11999198696, "lat": 36.3520227, "lon": 127.3800543, "tags": {"barrier": "kerb", "kerb": "lowered", "tactile_paving": "no", "wheelchair": "yes"}}, {"type": "node", "id": 11999198697, "lat": 36.3521712, "lon": 127.3801348, "tags": {"barrier": "kerb", "kerb": "lowered", "tactile_paving": "no", "wheelchair": "yes"}}, {"type": "node", "id": 11999198698, "lat": 36.3520913, "lon": 127.3800915, "tags": {"crossing": "uncontrolled", "crossing:island": "no", "crossing:markings": "zebra", "highway": "crossing", "kerb": "lowered", "tactile_paving": "no"}}, {"type": "node", "id": 11999198699, "lat": 36.3520468, "lon": 127.3798282}, {"type": "node", "id": 11999198700, "lat": 36.3519943, "lon": 127.3800107, "tags": {"barrier": "kerb", "kerb": "lowered", "tactile_paving": "no", "wheelchair": "yes"}}, {"type": "node", "id": 11999198701, "lat": 36.352037, "lon": 127.3798545, "tags": {"barrier": "kerb", "kerb": "lowered", "tactile_paving": "no", "wheelchair": "yes"}}, {"type": "node", "id": 11999198703, "lat": 36.3522041, "lon": 127.3799068}, {"type": "node", "id": 11999198704, "lat": 36.3522176, "lon": 127.3799498}, {"type": "node", "id": 11999198706, "lat": 36.3521846, "lon": 127.3801227, "tags": {"barrier": "kerb", "kerb": "lowered", "tactile_paving": "no", "wheelchair": "yes"}}, {"type": "node", "id": 11999198707, "lat": 36.3522096, "lon": 127.3799817, "tags": {"barrier": "kerb", "kerb": "lowered", "tactile_paving": "yes", "wheelchair": "yes"}}, {"type": "node", "id": 11999198708, "lat": 36.3521678, "lon": 127.3798928, "tags": {"barrier": "kerb", "kerb": "lowered", "tactile_paving": "yes", "wheelchair": "yes"}}, {"type": "node", "id": 11999198709, "lat": 36.3520645, "lon": 127.3798405, "tags": {"barrier": "kerb", "kerb": "lowered", "tactile_paving": "no", "wheelchair": "yes"}}, {"type": "node", "id": 11999198710, "lat": 36.3521998, "lon": 127.3800372, "tags": {"crossing": "uncontrolled", "crossing:island": "no", "crossing:markings": "zebra", "highway": "crossing", "kerb": "lowered", "tactile_paving": "no"}}, {"type": "node", "id": 11999198711, "lat": 36.3521188, "lon": 127.3798682, "tags": {"crossing": "uncontrolled", "crossing:island": "no", "crossing:markings": "zebra", "highway": "crossing", "kerb": "lowered", "tactile_paving": "no"}}, {"type": "node", "id": 11999198712, "lat": 36.3520148, "lon": 127.3799357, "tags": {"crossing": "uncontrolled", "crossing:island": "no", "crossing:markings": "zebra", "highway": "crossing", "kerb": "lowered", "tactile_paving": "no"}}, {"type": "node", "id": 11999198716, "lat": 36.3512134, "lon": 127.3819055}, {"type": "node", "id": 11999198719, "lat": 36.3513308, "lon": 127.3811556, "tags": {"crossing": "traffic_signals", "crossing:island": "no", "crossing:markings": "zebra:double", "highway": "crossing", "kerb": "lowered", "tactile_paving": "no", "traffic_signals:arrow": "no", "traffic_signals:countdown": "no", "traffic_signals:minimap": "no"}}, {"type": "node", "id": 11999198721, "lat": 36.351255, "lon": 127.382954}, {"type": "node", "id": 11999198722, "lat": 36.3512738, "lon": 127.3787581}, {"type": "node", "id": 11999198723, "lat": 36.3512733, "lon": 127.3794875}, {"type": "node", "id": 11999198724, "lat": 36.3512624, "lon": 127.3820136}, {"type": "node", "id": 11999198725, "lat": 36.3512661, "lon": 127.381154, "tags": {"crossing": "traffic_signals", "crossing:island": "no", "crossing:markings": "zebra:double", "highway": "crossing", "kerb": "lowered", "tactile_paving": "no", "traffic_signals:arrow": "no", "traffic_signals:countdown": "no", "traffic_signals:minimap": "no"}}, {"type": "node", "id": 11999198726, "lat": 36.3512565, "lon": 127.3827559, "tags": {"crossing": "traffic_signals", "crossing:island": "no", "crossing:markings": "zebra:double", "highway": "crossing", "kerb": "lowered", "tactile_paving": "no", "traffic_signals:countdown": "yes"}}, {"type": "node", "id": 11999198731, "lat": 36.3527556, "lon": 127.3745032}, {"type": "node", "id": 11999198732, "lat": 36.3519518, "lon": 127.3765504}, {"type": "node", "id": 11999198733, "lat": 36.3516234, "lon": 127.377457}, {"type": "node", "id": 11999198734, "lat": 36.3513518, "lon": 127.3784508}, {"type": "node", "id": 11999198735, "lat": 36.3513407, "lon": 127.3788366}, {"type": "node", "id": 11999198736, "lat": 36.3523011, "lon": 127.375576}, {"type": "node", "id": 11999198737, "lat": 36.3517961, "lon": 127.3799103, "tags": {"barrier": "kerb", "kerb": "lowered", "tactile_paving": "no", "wheelchair": "yes"}}, {"type": "node", "id": 11999198738, "lat": 36.3517162, "lon": 127.379865, "tags": {"barrier": "kerb", "kerb": "lowered", "tactile_paving": "no", "wheelchair": "yes"}}, {"type": "node", "id": 11999198739, "lat": 36.35176, "lon": 127.3798897, "tags": {"crossing": "uncontrolled", "crossing:island": "no", "crossing:markings": "zebra", "highway": "crossing", "kerb": "lowered", "tactile_paving": "no"}}, {"type": "node", "id": 11999198740, "lat": 36.3517658, "lon": 127.38194, "tags": {"barrier": "kerb", "kerb": "lowered", "tactile_paving": "no", "wheelchair": "yes"}}, {"type": "node", "id": 11999198741, "lat": 36.3517127, "lon": 127.3819397, "tags": {"barrier": "kerb", "kerb": "lowered", "tactile_paving": "no", "wheelchair": "yes"}}, {"type": "node", "id": 11999198742, "lat": 36.3517442, "lon": 127.3819399, "tags": {"crossing": "unmarked", "crossing:island": "no", "crossing:markings": "no", "highway": "crossing", "kerb": "lowered", "tactile_paving": "no"}}, {"type": "node", "id": 11999198743, "lat": 36.3522014, "lon": 127.3818612}, {"type": "node", "id": 11999198744, "lat": 36.3521576, "lon": 127.3818115}, {"type": "node", "id": 11999198745, "lat": 36.3521614, "lon": 127.380231}, {"type": "node", "id": 11999198747, "lat": 36.3522446, "lon": 127.380168}, {"type": "node", "id": 11999198748, "lat": 36.3523936, "lon": 127.3802377, "tags": {"barrier": "kerb", "kerb": "lowered", "tactile_paving": "no", "wheelchair": "yes"}}, {"type": "node", "id": 11999198764, "lat": 36.3524003, "lon": 127.3818617, "tags": {"barrier": "kerb", "kerb": "lowered", "tactile_paving": "no", "wheelchair": "yes"}}, {"type": "node", "id": 11999271097, "lat": 36.353764, "lon": 127.3828515}, {"type": "node", "id": 11999277797, "lat": 36.3556808, "lon": 127.3828664}, {"type": "node", "id": 11999277799, "lat": 36.3557558, "lon": 127.3828159}, {"type": "node", "id": 11999948624, "lat": 36.3519954, "lon": 127.3819252}, {"type": "node", "id": 11999948630, "lat": 36.3520909, "lon": 127.3820727, "tags": {"crossing": "uncontrolled", "crossing:island": "no", "crossing:markings": "zebra", "highway": "crossing", "kerb": "lowered", "tactile_paving": "no"}}, {"type": "node", "id": 11999948642, "lat": 36.352089, "lon": 127.3827905, "tags": {"crossing": "uncontrolled", "crossing:island": "no", "crossing:markings": "zebra", "highway": "crossing", "kerb": "lowered", "tactile_paving": "no"}}, {"type": "node", "id": 12000023395, "lat": 36.3551393, "lon": 127.3803586}, {"type": "node", "id": 12000023398, "lat": 36.3539278, "lon": 127.380363}, {"type": "node", "id": 12000023429, "lat": 36.3542846, "lon": 127.382782, "tags": {"barrier": "kerb", "kerb": "lowered", "tactile_paving": "yes", "wheelchair": "yes"}}, {"type": "node", "id": 12000023430, "lat": 36.3543646, "lon": 127.382782, "tags": {"barrier": "kerb", "kerb": "lowered", "tactile_paving": "yes", "wheelchair": "yes"}}, {"type": "node", "id": 12000023434, "lat": 36.3547946, "lon": 127.3827813, "tags": {"barrier": "kerb", "kerb": "lowered", "tactile_paving": "yes", "wheelchair": "yes"}}, {"type": "node", "id": 12000023435, "lat": 36.3549168, "lon": 127.3827791, "tags": {"barrier": "kerb", "kerb": "lowered", "tactile_paving": "yes", "wheelchair": "yes"}}, {"type": "node", "id": 12000337116, "lat": 36.3557279, "lon": 127.3803564, "tags": {"crossing": "traffic_signals", "crossing:island": "no", "crossing:markings": "zebra:double", "highway": "crossing", "kerb": "lowered", "tactile_paving": "no", "traffic_signals:arrow": "no", "traffic_signals:countdown": "yes", "traffic_signals:minimap": "no"}}, {"type": "node", "id": 12000337159, "lat": 36.3536975, "lon": 127.3803583, "tags": {"crossing": "uncontrolled", "crossing:island": "no", "crossing:markings": "zebra", "highway": "crossing", "kerb": "lowered", "tactile_paving": "no"}}, {"type": "node", "id": 12000337162, "lat": 36.3534803, "lon": 127.3803531, "tags": {"crossing": "uncontrolled", "crossing:island": "no", "crossing:markings": "zebra", "highway": "crossing", "kerb": "lowered", "tactile_paving": "no"}}, {"type": "node", "id": 12000337168, "lat": 36.3535015, "lon": 127.3801956}, {"type": "node", "id": 12000348569, "lat": 36.3534559, "lon": 127.3802629}, {"type": "node", "id": 12000348570, "lat": 36.353292, "lon": 127.3802629}, {"type": "node", "id": 12000348571, "lat": 36.3530169, "lon": 127.3802239}, {"type": "node", "id": 12000348572, "lat": 36.3527832, "lon": 127.3801762}, {"type": "node", "id": 12000348573, "lat": 36.3525423, "lon": 127.3801036}, {"type": "node", "id": 12000348574, "lat": 36.3522208, "lon": 127.37996}, {"type": "node", "id": 12000348575, "lat": 36.3521861, "lon": 127.3798498}, {"type": "node", "id": 12000348576, "lat": 36.3523269, "lon": 127.3794508}, {"type": "node", "id": 12000348577, "lat": 36.3524026, "lon": 127.3794169}, {"type": "node", "id": 12000348578, "lat": 36.352617, "lon": 127.3795311}, {"type": "node", "id": 12000348579, "lat": 36.3530393, "lon": 127.3796786}, {"type": "node", "id": 12000348580, "lat": 36.3532402, "lon": 127.3797055}, {"type": "node", "id": 12000348581, "lat": 36.3534724, "lon": 127.3797417}, {"type": "node", "id": 12000348582, "lat": 36.3534994, "lon": 127.3797846}, {"type": "node", "id": 12000348583, "lat": 36.3531705, "lon": 127.3797085}, {"type": "node", "id": 12000348584, "lat": 36.3529905, "lon": 127.3796489}, {"type": "node", "id": 12000348585, "lat": 36.3534784, "lon": 127.3802297}, {"type": "node", "id": 12000348586, "lat": 36.3520764, "lon": 127.3798049}, {"type": "node", "id": 12000348587, "lat": 36.3520097, "lon": 127.3798364}, {"type": "node", "id": 12000348588, "lat": 36.351422, "lon": 127.3794721}, {"type": "node", "id": 12000348589, "lat": 36.3514286, "lon": 127.3788615}, {"type": "node", "id": 12000348590, "lat": 36.3514822, "lon": 127.3788358}, {"type": "node", "id": 12000348591, "lat": 36.3522081, "lon": 127.3793332}, {"type": "node", "id": 12000348592, "lat": 36.3522193, "lon": 127.3793892}, {"type": "node", "id": 12000348593, "lat": 36.3517506, "lon": 127.3790198}, {"type": "node", "id": 12000348594, "lat": 36.3520187, "lon": 127.3792035}, {"type": "node", "id": 12000348595, "lat": 36.3519648, "lon": 127.3792014}, {"type": "node", "id": 12000348596, "lat": 36.3517914, "lon": 127.379085}, {"type": "node", "id": 12000348597, "lat": 36.3518787, "lon": 127.3792927}, {"type": "node", "id": 12000348598, "lat": 36.3518851, "lon": 127.3792766}, {"type": "node", "id": 12000348599, "lat": 36.3517131, "lon": 127.3796461}, {"type": "node", "id": 12000348600, "lat": 36.3517829, "lon": 127.3792756}, {"type": "node", "id": 12000348601, "lat": 36.3517964, "lon": 127.3792839}, {"type": "node", "id": 12000348602, "lat": 36.351718, "lon": 127.3794815}, {"type": "node", "id": 12000348603, "lat": 36.3517033, "lon": 127.3794959}, {"type": "node", "id": 12000348604, "lat": 36.3515706, "lon": 127.3790391}, {"type": "node", "id": 12000348605, "lat": 36.3514962, "lon": 127.3790873}, {"type": "node", "id": 12000348606, "lat": 36.3515458, "lon": 127.3790497}, {"type": "node", "id": 12000348607, "lat": 36.3517247, "lon": 127.3797601}, {"type": "node", "id": 12000348608, "lat": 36.351766, "lon": 127.3796595, "tags": {"amenity": "parking_entrance", "parking": "underground"}}, {"type": "node", "id": 12000348609, "lat": 36.3517259, "lon": 127.3796605, "tags": {"barrier": "kerb", "kerb": "lowered", "tactile_paving": "no", "wheelchair": "yes"}}, {"type": "node", "id": 12000348610, "lat": 36.3517862, "lon": 127.3796979, "tags": {"barrier": "kerb", "kerb": "lowered", "tactile_paving": "no", "wheelchair": "yes"}}, {"type": "node", "id": 12000348611, "lat": 36.3517574, "lon": 127.3796804, "tags": {"crossing": "unmarked", "crossing:island": "no", "crossing:markings": "no", "highway": "crossing", "kerb": "lowered", "tactile_paving": "no"}}, {"type": "node", "id": 12000348612, "lat": 36.3515551, "lon": 127.3795663, "tags": {"barrier": "kerb", "kerb": "lowered", "tactile_paving": "no", "wheelchair": "yes"}}, {"type": "node", "id": 12000348613, "lat": 36.3516081, "lon": 127.3795997, "tags": {"barrier": "kerb", "kerb": "lowered", "tactile_paving": "no", "wheelchair": "yes"}}, {"type": "node", "id": 12000348614, "lat": 36.3516526, "lon": 127.3796167}, {"type": "node", "id": 12000348615, "lat": 36.351581, "lon": 127.3795827, "tags": {"crossing": "unmarked", "crossing:island": "no", "crossing:markings": "no", "highway": "crossing", "kerb": "lowered", "tactile_paving": "no"}}, {"type": "node", "id": 12000348616, "lat": 36.3516151, "lon": 127.3794853, "tags": {"amenity": "parking_entrance", "parking": "underground"}}, {"type": "node", "id": 12000348617, "lat": 36.3515559, "lon": 127.3796538}, {"type": "node", "id": 12000348618, "lat": 36.3514106, "lon": 127.3795037, "tags": {"barrier": "kerb", "kerb": "lowered", "tactile_paving": "yes", "wheelchair": "yes"}}, {"type": "node", "id": 12000348619, "lat": 36.3513955, "lon": 127.3796521, "tags": {"barrier": "kerb", "kerb": "lowered", "tactile_paving": "no", "wheelchair": "yes"}}, {"type": "node", "id": 12000348620, "lat": 36.3514046, "lon": 127.3795633, "tags": {"crossing": "uncontrolled", "crossing:island": "no", "crossing:markings": "zebra", "highway": "crossing", "kerb": "lowered", "tactile_paving": "no"}}, {"type": "node", "id": 12000348621, "lat": 36.3517963, "lon": 127.3786376}, {"type": "node", "id": 12000348622, "lat": 36.3522062, "lon": 127.3788515}, {"type": "node", "id": 12000348623, "lat": 36.3518607, "lon": 127.3786378}, {"type": "node", "id": 12000348624, "lat": 36.3517873, "lon": 127.3786194, "tags": {"amenity": "taxi"}}, {"type": "node", "id": 12000348625, "lat": 36.3521443, "lon": 127.3775682}, {"type": "node", "id": 12000348626, "lat": 36.3521448, "lon": 127.3780221}, {"type": "node", "id": 12000348627, "lat": 36.3522144, "lon": 127.3781018}, {"type": "node", "id": 12000348628, "lat": 36.3526018, "lon": 127.3783642, "tags": {"crossing": "uncontrolled", "crossing:island": "no", "crossing:markings": "zebra:double", "highway": "crossing", "kerb": "flush", "tactile_paving": "no", "traffic_calming": "table"}}, {"type": "node", "id": 12000348629, "lat": 36.3529798, "lon": 127.3785404}, {"type": "node", "id": 12000348630, "lat": 36.3533134, "lon": 127.3786076}, {"type": "node", "id": 12000348631, "lat": 36.3535859, "lon": 127.3786121}, {"type": "node", "id": 12000348632, "lat": 36.3544187, "lon": 127.3786121}, {"type": "node", "id": 12000348633, "lat": 36.3551165, "lon": 127.3786098}, {"type": "node", "id": 12000348634, "lat": 36.3522171, "lon": 127.377558}, {"type": "node", "id": 12000348635, "lat": 36.3533057, "lon": 127.3785109}, {"type": "node", "id": 12000348636, "lat": 36.3521157, "lon": 127.378024}, {"type": "node", "id": 12000348637, "lat": 36.3521145, "lon": 127.3776201}, {"type": "node", "id": 12000348638, "lat": 36.3520959, "lon": 127.3775939}, {"type": "node", "id": 12000348639, "lat": 36.3517695, "lon": 127.3776047}, {"type": "node", "id": 12000348640, "lat": 36.3517025, "lon": 127.3776555}, {"type": "node", "id": 12000348641, "lat": 36.3515077, "lon": 127.3782148}, {"type": "node", "id": 12000348642, "lat": 36.3515139, "lon": 127.3783365}, {"type": "node", "id": 12000348643, "lat": 36.3515661, "lon": 127.378415}, {"type": "node", "id": 12000348644, "lat": 36.3517968, "lon": 127.3785799}, {"type": "node", "id": 12000348645, "lat": 36.3518676, "lon": 127.3785845}, {"type": "node", "id": 12000348646, "lat": 36.3522423, "lon": 127.3788186}, {"type": "node", "id": 12000348647, "lat": 36.352272, "lon": 127.378891}, {"type": "node", "id": 12000348648, "lat": 36.3524631, "lon": 127.3790066}, {"type": "node", "id": 12000348649, "lat": 36.3527063, "lon": 127.3791129}, {"type": "node", "id": 12000348650, "lat": 36.3529904, "lon": 127.3792038}, {"type": "node", "id": 12000348651, "lat": 36.3532373, "lon": 127.37923}, {"type": "node", "id": 12000348652, "lat": 36.3534668, "lon": 127.3792361}, {"type": "node", "id": 12000348653, "lat": 36.3535028, "lon": 127.3791807}, {"type": "node", "id": 12000348654, "lat": 36.3535078, "lon": 127.378737}, {"type": "node", "id": 12000348655, "lat": 36.3534768, "lon": 127.37868}, {"type": "node", "id": 12000348659, "lat": 36.3521591, "lon": 127.3781146}, {"type": "node", "id": 12000348660, "lat": 36.3523684, "lon": 127.3789493}, {"type": "node", "id": 12000348661, "lat": 36.3526514, "lon": 127.3782448, "tags": {"barrier": "kerb", "kerb": "flush", "tactile_paving": "yes", "wheelchair": "yes"}}, {"type": "node", "id": 12000348662, "lat": 36.3526007, "lon": 127.3775916}, {"type": "node", "id": 12000348663, "lat": 36.3522994, "lon": 127.3775972}, {"type": "node", "id": 12000348664, "lat": 36.3522397, "lon": 127.3776433}, {"type": "node", "id": 12000348665, "lat": 36.3522385, "lon": 127.3779384}, {"type": "node", "id": 12000348666, "lat": 36.3522792, "lon": 127.3780002}, {"type": "node", "id": 12000348667, "lat": 36.3526896, "lon": 127.3782699}, {"type": "node", "id": 12000348668, "lat": 36.353007, "lon": 127.3784106}, {"type": "node", "id": 12000348669, "lat": 36.3532886, "lon": 127.3784756}, {"type": "node", "id": 12000348670, "lat": 36.3534351, "lon": 127.3784736}, {"type": "node", "id": 12000348671, "lat": 36.3534858, "lon": 127.378436}, {"type": "node", "id": 12000348672, "lat": 36.3535178, "lon": 127.3783841}, {"type": "node", "id": 12000348673, "lat": 36.3535194, "lon": 127.3776249}, {"type": "node", "id": 12000348674, "lat": 36.3534744, "lon": 127.377571}, {"type": "node", "id": 12000348675, "lat": 36.3526774, "lon": 127.3775726}, {"type": "node", "id": 12000348696, "lat": 36.3526308, "lon": 127.3775165}, {"type": "node", "id": 12000348697, "lat": 36.3526308, "lon": 127.3776071, "tags": {"amenity": "parking", "layer": "-1", "parking": "underground"}}, {"type": "node", "id": 12000348698, "lat": 36.3528382, "lon": 127.3775734, "tags": {"barrier": "kerb", "kerb": "lowered", "tactile_paving": "yes", "wheelchair": "yes"}}, {"type": "node", "id": 12000348700, "lat": 36.3535185, "lon": 127.3780321}, {"type": "node", "id": 12000348702, "lat": 36.3524413, "lon": 127.3783496, "tags": {"amenity": "parking_entrance", "parking": "underground"}}, {"type": "node", "id": 12000348704, "lat": 36.3525641, "lon": 127.3783386}, {"type": "node", "id": 12000348705, "lat": 36.3524839, "lon": 127.3783452}, {"type": "node", "id": 12000348708, "lat": 36.3521385, "lon": 127.3781185, "tags": {"amenity": "parking_entrance", "parking": "underground"}}, {"type": "node", "id": 12012276846, "lat": 36.3514668, "lon": 127.3787911}, {"type": "node", "id": 12012276847, "lat": 36.3490591, "lon": 127.3765546}, {"type": "node", "id": 12012276848, "lat": 36.3490468, "lon": 127.3766402}, {"type": "node", "id": 12012276849, "lat": 36.3491139, "lon": 127.3768091, "tags": {"crossing": "uncontrolled", "crossing:island": "no", "crossing:markings": "zebra", "highway": "crossing", "kerb": "lowered", "tactile_paving": "no"}}, {"type": "node", "id": 12012276850, "lat": 36.3491361, "lon": 127.3768315, "tags": {"barrier": "kerb", "kerb": "lowered", "tactile_paving": "yes", "wheelchair": "yes"}}, {"type": "node", "id": 12012276851, "lat": 36.3511408, "lon": 127.3781758}, {"type": "node", "id": 12012276852, "lat": 36.3512007, "lon": 127.3781881}, {"type": "node", "id": 12012276853, "lat": 36.3512677, "lon": 127.3781687}, {"type": "node", "id": 12012276854, "lat": 36.3513118, "lon": 127.3781262}, {"type": "node", "id": 12012276855, "lat": 36.351547, "lon": 127.3774971}, {"type": "node", "id": 12012276856, "lat": 36.3515442, "lon": 127.3774715}, {"type": "node", "id": 12012276857, "lat": 36.3513246, "lon": 127.3773325}, {"type": "node", "id": 12012276858, "lat": 36.3497144, "lon": 127.3772238, "tags": {"barrier": "kerb", "kerb": "flush", "tactile_paving": "yes", "wheelchair": "yes"}}, {"type": "node", "id": 12012276859, "lat": 36.3497771, "lon": 127.3772656, "tags": {"barrier": "kerb", "kerb": "flush", "tactile_paving": "yes", "wheelchair": "yes"}}, {"type": "node", "id": 12012276860, "lat": 36.3497386, "lon": 127.3772392, "tags": {"crossing": "uncontrolled", "crossing:island": "no", "crossing:markings": "zebra", "highway": "crossing", "kerb": "flush", "tactile_paving": "no"}}, {"type": "node", "id": 12012276861, "lat": 36.3505246, "lon": 127.3779325}, {"type": "node", "id": 12012276862, "lat": 36.3515359, "lon": 127.3775268}, {"type": "node", "id": 12012276863, "lat": 36.3489784, "lon": 127.376721, "tags": {"barrier": "kerb", "kerb": "lowered", "tactile_paving": "yes", "wheelchair": "yes"}}, {"type": "node", "id": 12012276864, "lat": 36.3490257, "lon": 127.3767154, "tags": {"barrier": "kerb", "kerb": "lowered", "tactile_paving": "yes", "wheelchair": "yes"}}, {"type": "node", "id": 12012276865, "lat": 36.3486126, "lon": 127.3764982, "tags": {"barrier": "kerb", "kerb": "lowered", "tactile_paving": "yes", "wheelchair": "yes"}}, {"type": "node", "id": 12012276866, "lat": 36.3487115, "lon": 127.3765612, "tags": {"crossing": "traffic_signals", "crossing:island": "no", "crossing:markings": "zebra:double", "highway": "crossing", "kerb": "lowered", "tactile_paving": "no", "traffic_signals:arrow": "no", "traffic_signals:countdown": "yes", "traffic_signals:minimap": "no"}}, {"type": "node", "id": 12012276867, "lat": 36.3489034, "lon": 127.3766835, "tags": {"barrier": "kerb", "kerb": "lowered", "tactile_paving": "yes", "wheelchair": "yes"}}, {"type": "node", "id": 12012276868, "lat": 36.3486359, "lon": 127.376513, "tags": {"crossing": "traffic_signals", "crossing:island": "no", "crossing:markings": "zebra:double", "highway": "crossing", "kerb": "lowered", "tactile_paving": "no", "traffic_signals:arrow": "no", "traffic_signals:countdown": "yes", "traffic_signals:minimap": "no"}}, {"type": "node", "id": 12012316269, "lat": 36.3488655, "lon": 127.3766594, "tags": {"crossing": "traffic_signals", "crossing:island": "no", "crossing:markings": "zebra:double", "highway": "crossing", "kerb": "lowered", "tactile_paving": "no", "traffic_signals:arrow": "no", "traffic_signals:countdown": "yes", "traffic_signals:minimap": "no"}}, {"type": "node", "id": 12012316274, "lat": 36.3489189, "lon": 127.3767963, "tags": {"barrier": "kerb", "kerb": "lowered", "tactile_paving": "yes", "wheelchair": "yes"}}, {"type": "node", "id": 12012316275, "lat": 36.3488788, "lon": 127.3768466, "tags": {"crossing": "traffic_signals", "crossing:island": "no", "crossing:markings": "zebra:double", "highway": "crossing", "kerb": "lowered", "tactile_paving": "no", "traffic_signals:arrow": "no", "traffic_signals:countdown": "yes", "traffic_signals:minimap": "no"}}, {"type": "node", "id": 12012316276, "lat": 36.3487819, "lon": 127.3769681, "tags": {"crossing": "traffic_signals", "crossing:island": "no", "crossing:markings": "zebra:double", "highway": "crossing", "kerb": "lowered", "tactile_paving": "no", "traffic_signals:arrow": "no", "traffic_signals:countdown": "yes", "traffic_signals:minimap": "no"}}, {"type": "node", "id": 12012316277, "lat": 36.348741, "lon": 127.3770194, "tags": {"barrier": "kerb", "kerb": "lowered", "tactile_paving": "yes", "wheelchair": "yes"}}, {"type": "node", "id": 12012316282, "lat": 36.349171, "lon": 127.3768551}, {"type": "node", "id": 12012316283, "lat": 36.3491737, "lon": 127.3768088}, {"type": "node", "id": 12012316284, "lat": 36.3494167, "lon": 127.3764183}, {"type": "node", "id": 12012316285, "lat": 36.3495214, "lon": 127.3762436}, {"type": "node", "id": 12012316286, "lat": 36.3496132, "lon": 127.3760696}, {"type": "node", "id": 12012316287, "lat": 36.3499507, "lon": 127.3753825}, {"type": "node", "id": 12012316288, "lat": 36.3499941, "lon": 127.3753517}, {"type": "node", "id": 12012316289, "lat": 36.3504358, "lon": 127.3756659}, {"type": "node", "id": 12012316290, "lat": 36.3497273, "lon": 127.3771834}, {"type": "node", "id": 12012316291, "lat": 36.3496911, "lon": 127.3772079}, {"type": "node", "id": 12012316292, "lat": 36.3504399, "lon": 127.3757094}, {"type": "node", "id": 12012316293, "lat": 36.3500737, "lon": 127.3764356}, {"type": "node", "id": 12012316301, "lat": 36.3489333, "lon": 127.3767301}, {"type": "node", "id": 12012316302, "lat": 36.3486839, "lon": 127.3770199}, {"type": "node", "id": 12012316327, "lat": 36.3513124, "lon": 127.3773351}, {"type": "node", "id": 12019761623, "lat": 36.3482084, "lon": 127.3791867}, {"type": "node", "id": 12019761624, "lat": 36.3481941, "lon": 127.3790888}, {"type": "node", "id": 12019761625, "lat": 36.3484575, "lon": 127.3796951}, {"type": "node", "id": 12019761626, "lat": 36.3485099, "lon": 127.3797418}, {"type": "node", "id": 12026043651, "lat": 36.3502181, "lon": 127.3805338}, {"type": "node", "id": 12026043652, "lat": 36.3500949, "lon": 127.3793378}, {"type": "node", "id": 12026043653, "lat": 36.349976, "lon": 127.3793876}, {"type": "node", "id": 12030566135, "lat": 36.3477458, "lon": 127.3778969, "tags": {"crossing": "uncontrolled", "crossing:island": "no", "crossing:markings": "zebra", "highway": "crossing", "kerb": "lowered", "tactile_paving": "no"}}, {"type": "node", "id": 12030566136, "lat": 36.3476908, "lon": 127.3779328, "tags": {"crossing": "uncontrolled", "crossing:island": "no", "crossing:markings": "zebra", "highway": "crossing", "kerb": "lowered", "tactile_paving": "no"}}, {"type": "node", "id": 12032647067, "lat": 36.3558808, "lon": 127.3803671}, {"type": "node", "id": 12033545142, "lat": 36.3543709, "lon": 127.3828023}, {"type": "node", "id": 12033545143, "lat": 36.3542704, "lon": 127.3828192}, {"type": "node", "id": 12033545144, "lat": 36.3542527, "lon": 127.3828445}, {"type": "node", "id": 12035041614, "lat": 36.3514962, "lon": 127.3737072}, {"type": "node", "id": 12035041615, "lat": 36.3527778, "lon": 127.3743295}, {"type": "node", "id": 12035041616, "lat": 36.3526898, "lon": 127.3744756}, {"type": "node", "id": 12035087169, "lat": 36.351382, "lon": 127.3807531}, {"type": "node", "id": 12770809674, "lat": 36.3507828, "lon": 127.3779368}, {"type": "way", "id": 29001482, "nodes": [318917858, 12030566136, 448138735, 11993775266, 436793056, 4941426971, 318917856, 318917853, 11993719690, 11993719711, 11993719713, 11993719712, 538801333, 436793938, 4941372375, 11773758802, 318917841], "tags": {"highway": "tertiary", "lanes": "2", "name": "\ub454\uc0b0\ub0a8\ub85c", "name:en": "Dunsannam-ro", "name:ko": "\ub454\uc0b0\ub0a8\ub85c", "oneway": "yes"}}, {"type": "way", "id": 29001491, "nodes": [318917891, 4634800327, 4634800330, 436781259, 318917907, 11999198732], "tags": {"highway": "tertiary", "name": "\ub454\uc9c0\ub85c", "name:en": "Dunji-ro", "name:ko": "\ub454\uc9c0\ub85c", "name:ko-Latn": "Dunji-ro"}}, {"type": "way", "id": 29001511, "nodes": [12032647067, 318917887, 12000337116, 4941426913, 12000023395, 436793949, 12000023398, 12000337159, 318918034, 12000337162, 318918095, 4441699022, 318918101, 11999198710, 318918103, 11999198712, 4941426929, 12000348607, 318918106, 12000348617, 12000348620, 318917902], "tags": {"highway": "residential", "name": "\ub454\uc0b0\ub85c51\ubc88\uae38", "name:en": "Dunsan-ro 51beon-gil", "name:ko": "\ub454\uc0b0\ub85c51\ubc88\uae38", "name:ko-Latn": "Dunsanro 51beongil", "surface": "asphalt"}}, {"type": "way", "id": 29001512, "nodes": [318918018, 11999948642, 11999948630, 318918092, 4439109273, 11999198698, 318918103, 11999198711, 318918115], "tags": {"highway": "residential", "name": "\ub300\ub355\ub300\ub85c220\ubc88\uae38", "name:en": "Daedeok-daero 220beon-gil", "name:ko": "\ub300\ub355\ub300\ub85c220\ubc88\uae38"}}, {"type": "way", "id": 41014453, "nodes": [499979840, 499979839, 499979838, 499979837, 4850200951, 499979836], "tags": {"highway": "primary", "lanes": "3", "layer": "-1", "maxheight": "4.5", "maxspeed": "70", "name": "\uac08\ub9c8\uc9c0\ud558\ucc28\ub3c4", "name:en": "Gyeryong-ro", "name:ko": "\uac08\ub9c8\uc9c0\ud558\ucc28\ub3c4", "oneway": "yes", "ref": "32", "surface": "asphalt", "tunnel": "yes"}}, {"type": "way", "id": 43011584, "nodes": [11999198734, 318917906, 318917907, 4846867905, 11999198731, 12035041615], "tags": {"highway": "tertiary", "lanes": "4", "name": "\ub454\uc0b0\ub85c", "name:en": "Dunsan-ro", "name:ko": "\ub454\uc0b0\ub85c", "oneway": "yes", "surface": "asphalt"}}, {"type": "way", "id": 43011598, "nodes": [538801340, 4941426955, 11993719715, 11993719689, 11993719697], "tags": {"highway": "residential", "oneway": "yes"}}, {"type": "way", "id": 43011599, "nodes": [538801337, 4703023930, 4725249488], "tags": {"highway": "residential", "noname": "yes", "surface": "asphalt"}}, {"type": "way", "id": 98092097, "nodes": [1135193591, 1135193818, 4721430704, 4721430705, 1135193730, 12000348708, 1135193809, 12000348702, 4721435545, 4721435542, 1135193715, 1135193760, 1135193667, 1135193671, 1135193813, 1135193625, 1135193591], "tags": {"addr:city": "\ub300\uc804\uad11\uc5ed\uc2dc", "addr:district": "\uc11c\uad6c", "addr:housenumber": "211", "addr:postcode": "35229", "addr:street": "\ub300\ub355\ub300\ub85c", "building": "commercial", "building:levels": "12", "name": "\uac24\ub7ec\ub9ac\uc544 \ud0c0\uc784\uc6d4\ub4dc", "name:en": "The Galleria Timeworld", "shop": "department_store", "source": "Bing (adjusted)"}}, {"type": "way", "id": 446959560, "nodes": [4441699003, 4441699004, 4441699002, 4441698999, 4441699000, 4441699003], "tags": {"amenity": "parking"}}, {"type": "way", "id": 446959564, "nodes": [4441699007, 4441698997, 4441698998, 4441699008, 4441699007], "tags": {"building": "yes"}}, {"type": "way", "id": 469069658, "nodes": [4634800345, 4634800343, 4634800339, 12000348635, 4634800336, 4634800335, 4977436251, 4634800334, 12000348634, 4634800333], "tags": {"highway": "residential", "name": "\ub454\uc0b0\ub85c31\ubc88\uae38", "name:en": "Dunsan-ro 31beon-gil", "name:ko": "\ub454\uc0b0\ub85c31\ubc88\uae38", "oneway": "yes"}}, {"type": "way", "id": 474520287, "nodes": [4634800333, 4684602738, 4684602739, 4684602740, 4684602741, 4684602743, 4684602744], "tags": {"highway": "residential", "noname": "yes"}}, {"type": "way", "id": 476866661, "nodes": [4703023930, 4703023931, 4703023932, 4703023933, 4703023934], "tags": {"highway": "residential", "noname": "yes", "surface": "asphalt"}}, {"type": "way", "id": 478969660, "nodes": [11999198733, 4721404873, 4721404881, 4721404876, 4721404872], "tags": {"highway": "service", "name": "\ub454\uc0b0\ub85c", "name:en": "Dunsan-ro", "name:ko": "\ub454\uc0b0\ub85c"}}, {"type": "way", "id": 478969663, "nodes": [4721404873, 4721404874, 4721404882, 4721404875, 4721404876, 4721404877, 4721404880, 4721404878, 4721404873], "tags": {"highway": "service", "noname": "yes"}}, {"type": "way", "id": 478969666, "nodes": [4725249473, 4721404880, 4721404881, 4721404882, 4721404883, 4721404884, 4721404885], "tags": {"highway": "pedestrian", "name": "\ub300\ub355\ub300\ub85c195\ubc88\uae38", "name:en": "Daedeok-daero 195beon-gil", "name:ko": "\ub300\ub355\ub300\ub85c195\ubc88\uae38"}}, {"type": "way", "id": 478972209, "nodes": [4721430690, 4721430703, 4721430706, 4721430691, 4721430692, 4721430693, 4721430695, 4721430696, 4721430697, 4721430698, 4721430699, 4721430700, 4721430701, 12000348697, 4721430702, 4721430690], "tags": {"building": "commercial", "parking": "rooftop"}}, {"type": "way", "id": 478972210, "nodes": [4721430703, 4721430704, 4721430705, 4721430706, 4721430703], "tags": {"building": "bridge", "layer": "1"}}, {"type": "way", "id": 478972750, "nodes": [4721435542, 4721435543, 4721435544, 4721435545, 4721435542], "tags": {"building": "bridge", "layer": "1"}}, {"type": "way", "id": 479415399, "nodes": [4725236409, 4725236410, 4725236411, 4725236412, 4725236413, 4725236409], "tags": {"building": "yes"}}, {"type": "way", "id": 479415402, "nodes": [4725236423, 4725236424, 4725236425, 4725236426, 4725236427, 4725236428, 4725236429, 4725236430, 4725236431, 4725236423], "tags": {"building": "yes"}}, {"type": "way", "id": 479415403, "nodes": [4725236432, 4725236433, 4725236434, 4725236435, 4725236436, 4725236437, 4725236438, 4725236439, 4725236440, 4725236441, 4725236442, 4725236443, 4725236444, 4725236445, 4725236446, 4725236447, 4725236448, 4725236449, 4725236450, 4725236451, 4725236452, 4725236453, 4725236454, 4725236455, 4725236432], "tags": {"building": "yes"}}, {"type": "way", "id": 479415404, "nodes": [4725236456, 4725236457, 4725236458, 4725236459, 4725236456], "tags": {"building": "yes"}}, {"type": "way", "id": 479417086, "nodes": [4725249472, 12012276860, 4721404872, 1233483312, 4721404886, 12035041614, 538801268], "tags": {"highway": "residential", "name": "\ub300\ub355\ub300\ub85c185\ubc88\uae38", "name:en": "Daedeok-daero 185beon-gil", "name:ko": "\ub300\ub355\ub300\ub85c185\ubc88\uae38"}}, {"type": "way", "id": 479417087, "nodes": [4725249472, 4725249471], "tags": {"highway": "primary", "lanes": "4", "maxspeed": "70", "name": "\ub300\ub355\ub300\ub85c", "name:en": "Daedeok-daero", "name:ko": "\ub300\ub355\ub300\ub85c", "oneway": "yes", "ref": "57", "surface": "asphalt"}}, {"type": "way", "id": 479417088, "nodes": [436793827, 4725249488, 4725249789], "tags": {"highway": "primary", "lanes": "4", "maxspeed": "70", "name": "\ub300\ub355\ub300\ub85c", "name:en": "Daedeok-daero", "name:ko": "\ub300\ub355\ub300\ub85c", "oneway": "yes", "ref": "57", "surface": "asphalt"}}, {"type": "way", "id": 479417089, "nodes": [4725249789, 414674773], "tags": {"highway": "primary", "lanes": "4", "maxspeed": "60", "name": "\ub300\ub355\ub300\ub85c", "name:en": "Daedeok-daero", "name:ko": "\ub300\ub355\ub300\ub85c", "oneway": "yes", "ref": "57", "surface": "asphalt"}}, {"type": "way", "id": 479417414, "nodes": [11993655705, 12012276849, 4725252268, 4711509623], "tags": {"highway": "residential", "name": "\ub300\ub355\ub300\ub85c175\ubc88\uae38", "name:en": "Daedeok-daero 175beon-gil", "name:ko": "\ub300\ub355\ub300\ub85c175\ubc88\uae38", "surface": "asphalt"}}, {"type": "way", "id": 480045548, "nodes": [318917889, 4634800328, 4716598741, 436781258, 4634800349, 12000348696, 4634800333, 4850089844, 318917906], "tags": {"highway": "residential", "name": "\ub454\uc0b0\ub85c31\ubc88\uae38", "name:en": "Dunsan-ro 31beon-gil", "name:ko": "\ub454\uc0b0\ub85c31\ubc88\uae38"}}, {"type": "way", "id": 492696889, "nodes": [4846863766, 4846863767, 4846863768, 4846863769, 4846863770, 4846863771, 4846863772, 4846863773, 4846863774, 4846863782, 4846863783, 4846863799, 4846863800, 4846863801, 4846863802, 4846863804, 4846863805, 4846863806, 4846863808, 4846863809, 4846863811, 12000348622, 12000348623, 12000348621, 4846863812, 4846863815, 4846863816, 4846863817, 4846863818, 4846863819, 4846863820, 4846863921, 4846863766], "tags": {"landuse": "commercial"}}, {"type": "way", "id": 492697437, "nodes": [4846863944, 4846863945, 4846863947, 4846863948, 4846863949, 4846863956, 4846863957, 4846863958, 4846863959, 4846863960, 4846863961, 4846863962, 4846863963, 4846863964, 4846863965, 4846863966, 4846863967, 4846863968, 4846863969, 4846863970, 4846863971, 4846863972, 4846863973, 4846863974, 4846863975, 4846863976, 4846863977, 4846863979, 4846863980, 4846863944], "tags": {"landuse": "commercial"}}, {"type": "way", "id": 493027517, "nodes": [4849735025, 4849735026], "tags": {"natural": "tree_row"}}, {"type": "way", "id": 493048383, "nodes": [4849915955, 4849915956, 4849915957, 4849915958, 12012276846, 4849915960, 4849915962, 4849915964, 4849915966, 4849915967, 4849915968, 4849915969, 4849915970, 4849915971, 4849915972, 4849915973, 4849915974, 4849915975, 4849915976, 4849915977, 4849915978, 4849915979, 4849915980, 4849915984, 4849915987, 4849915990, 4849915994, 4849915995, 4849915996, 4849915997, 4849915998, 4849915999, 4849916000, 4849916001, 4849916002, 4849916003, 4849916004, 4849916005, 4849916006, 4849916007, 4849916008, 4849916009, 4849916010, 4849916011, 4849916012, 4849916013, 4849916014, 4849916015, 4849916016, 4849916017, 11503255939, 11999277799, 4849916019, 11503255935, 11999277797, 4849916421, 4849916422, 4849916425, 4849916426, 12000023435, 12000023434, 4849916433, 4849916435, 12033545142, 12000023430, 12000023429, 12033545143, 12033545144, 4849916438, 11999271097, 4849916443, 4849916444, 4849916445, 4849916446, 4849916447, 4849916448, 4849916449, 4849916450, 4849916451, 4849916452, 4849916453, 4849916454, 4849916455, 4849916456, 4849916457, 4849916458, 4849916459, 4849916460, 4849916461, 4849916462, 4849916463, 4849916464, 11773758828, 4849916466, 4849916467, 11977640727, 11773758819, 11977640728, 4849916469, 4849916471, 4849916472, 4849916473, 4849916474, 4849916475, 4849916476, 4849916477, 4849916478, 12035087169, 4849916479, 4849916480, 4849916481, 4849916482, 4849916483, 4849916484, 4849916485, 4849916486, 4849916487, 4849916488, 4849915955], "tags": {"landuse": "commercial"}}, {"type": "way", "id": 503899130, "nodes": [4941426879, 4941426880, 4941426881, 4941426882, 4941426883, 4941426884], "tags": {"natural": "tree_row"}}, {"type": "way", "id": 503899131, "nodes": [4941426891, 4941426892, 4941426890, 4941426885, 4941426886, 4941426887, 4941426888, 4941426889], "tags": {"natural": "tree_row"}}, {"type": "way", "id": 503899141, "nodes": [4941426917, 4941426918, 4941426919, 4941426920, 4941426921, 4941426922, 4941426923, 4941426924, 4941426925, 4941426926, 4941426927, 4941426928, 4941426917], "tags": {"building": "commercial", "name": "\ud604\ub300\uce74\ub4dc"}}, {"type": "way", "id": 503899142, "nodes": [4941426929, 11999198739, 4941426930, 11999198690, 11999198742, 4941426931], "tags": {"highway": "residential", "noname": "yes", "surface": "asphalt"}}, {"type": "way", "id": 503899148, "nodes": [4941426955, 12026043651, 4941426956, 12026043652, 12026043653, 4941426974, 4941426965, 4941426958, 4941426959, 4941426960, 4941426961, 4941426963, 4941426970], "tags": {"highway": "service", "surface": "asphalt"}}, {"type": "way", "id": 503899224, "nodes": [4941426958, 4941426964], "tags": {"highway": "service", "service": "parking_aisle", "surface": "asphalt"}}, {"type": "way", "id": 503899225, "nodes": [4941426965, 4941426966], "tags": {"highway": "service", "service": "parking_aisle", "surface": "asphalt"}}, {"type": "way", "id": 503899226, "nodes": [4941426963, 4941426967, 4941426968, 4941426969], "tags": {"highway": "service", "service": "parking_aisle", "surface": "asphalt"}}, {"type": "way", "id": 503899227, "nodes": [4941426970, 11993777775, 11993719701, 4941426971], "tags": {"highway": "service", "service": "parking_aisle"}}, {"type": "way", "id": 503899228, "nodes": [4941426972, 4941426973, 4941426974, 4941426975], "tags": {"highway": "service", "service": "parking_aisle", "surface": "asphalt"}}, {"type": "way", "id": 504118796, "nodes": [4943219359, 12000348600, 12000348601, 12000348602, 12000348603, 4943219360, 12000348599, 4943219361, 12000348608, 4943219363, 4943219364, 4943219365, 4943219366, 4943219367, 12000348598, 12000348597, 4943219368, 4943219369, 4943219359], "tags": {"building": "commercial"}}, {"type": "way", "id": 504118798, "nodes": [4943219370, 4943219371, 4943219373, 12000348604, 12000348606, 4943219374, 12000348605, 4943219375, 4943219376, 4943219377, 4943219378, 4943219379, 4943219380, 4943219382, 4943219370], "tags": {"amenity": "bank", "atm": "yes", "brand": "KB\uad6d\ubbfc\uc740\ud589", "brand:en": "KB Kookmin Bank", "brand:ko": "KB\uad6d\ubbfc\uc740\ud589", "brand:wikidata": "Q496606", "building": "yes", "drive_through": "no", "name": "KB\uad6d\ubbfc\uc740\ud589", "name:en": "KB Kookmin Bank", "name:ko": "KB\uad6d\ubbfc\uc740\ud589"}}, {"type": "way", "id": 504118806, "nodes": [4943219435, 4943219436, 4943219437, 4943219438, 4943219439, 4943219440, 4943219441, 4943219435], "tags": {"building": "commercial"}}, {"type": "way", "id": 608002622, "nodes": [5760992865, 5760992866, 5760992868, 5760992869, 5760992870, 5760992871, 5760992865], "tags": {"building": "commercial", "name": "\uc0bc\uc131\ub514\uc9c0\ud138\ud504\ub77c\uc790"}}, {"type": "way", "id": 638634934, "nodes": [6018675641, 6018675642, 6018675643, 6018675644, 6018675641], "tags": {"addr:city": "\ub300\uc804\uad11\uc5ed\uc2dc", "addr:district": "\uc11c\uad6c", "addr:housenumber": "30", "addr:postcode": "35235", "addr:street": "\ub454\uc0b0\ub0a8\ub85c", "building": "apartments", "level": "12", "name": "101\ub3d9"}}, {"type": "way", "id": 664549290, "nodes": [6219947942, 6219947941, 6219947940, 6219947939, 6219947942], "tags": {"addr:city": "\ub300\uc804\uad11\uc5ed\uc2dc", "addr:district": "\uc11c\uad6c", "addr:housenumber": "15", "addr:postcode": "35234", "addr:street": "\ub454\uc0b0\ub0a8\ub85c", "building": "apartments", "name": "107"}}, {"type": "way", "id": 664549291, "nodes": [6219947946, 6219947945, 6219947944, 6219947943, 6219947946], "tags": {"addr:city": "\ub300\uc804\uad11\uc5ed\uc2dc", "addr:district": "\uc11c\uad6c", "addr:housenumber": "15", "addr:postcode": "35234", "addr:street": "\ub454\uc0b0\ub0a8\ub85c", "building": "apartments", "name": "106"}}, {"type": "way", "id": 664549292, "nodes": [6219947950, 6219947949, 6219947948, 6219947947, 6219947950], "tags": {"addr:city": "\ub300\uc804\uad11\uc5ed\uc2dc", "addr:district": "\uc11c\uad6c", "addr:housenumber": "15", "addr:postcode": "35234", "addr:street": "\ub454\uc0b0\ub0a8\ub85c", "building": "apartments", "name": "108"}}, {"type": "way", "id": 664549293, "nodes": [6219947954, 6219947953, 6219947952, 6219947951, 6219947954], "tags": {"addr:city": "\ub300\uc804\uad11\uc5ed\uc2dc", "addr:district": "\uc11c\uad6c", "addr:housenumber": "15", "addr:postcode": "35234", "addr:street": "\ub454\uc0b0\ub0a8\ub85c", "building": "apartments", "name": "109"}}, {"type": "way", "id": 664549294, "nodes": [6219947958, 6219947955, 6219947956, 6219947957, 6219947958], "tags": {"addr:city": "\ub300\uc804\uad11\uc5ed\uc2dc", "addr:district": "\uc11c\uad6c", "addr:housenumber": "15", "addr:postcode": "35234", "addr:street": "\ub454\uc0b0\ub0a8\ub85c", "building": "apartments", "name": "110"}}, {"type": "way", "id": 664549295, "nodes": [6219947962, 6219947959, 6219947960, 6219947961, 6219947962], "tags": {"addr:city": "\ub300\uc804\uad11\uc5ed\uc2dc", "addr:district": "\uc11c\uad6c", "addr:housenumber": "15", "addr:postcode": "35234", "addr:street": "\ub454\uc0b0\ub0a8\ub85c", "building": "apartments", "name": "105"}}, {"type": "way", "id": 664549296, "nodes": [6219947966, 6219947963, 6219947964, 6219947965, 6219947966], "tags": {"addr:city": "\ub300\uc804\uad11\uc5ed\uc2dc", "addr:district": "\uc11c\uad6c", "addr:housenumber": "15", "addr:postcode": "35234", "addr:street": "\ub454\uc0b0\ub0a8\ub85c", "building": "apartments", "name": "104"}}, {"type": "way", "id": 664549297, "nodes": [6219947970, 6219947967, 6219947968, 6219947969, 6219947970], "tags": {"addr:city": "\ub300\uc804\uad11\uc5ed\uc2dc", "addr:district": "\uc11c\uad6c", "addr:housenumber": "15", "addr:postcode": "35234", "addr:street": "\ub454\uc0b0\ub0a8\ub85c", "building": "apartments", "name": "103"}}, {"type": "way", "id": 664549298, "nodes": [6219947974, 6219947971, 6219947972, 6219947973, 6219947974], "tags": {"addr:city": "\ub300\uc804\uad11\uc5ed\uc2dc", "addr:district": "\uc11c\uad6c", "addr:housenumber": "15", "addr:postcode": "35234", "addr:street": "\ub454\uc0b0\ub0a8\ub85c", "building": "apartments", "name": "102"}}, {"type": "way", "id": 674241810, "nodes": [4725249474, 414674773], "tags": {"highway": "tertiary", "lanes": "4", "name": "\ub454\uc0b0\ub85c", "name:en": "Dunsan-ro", "name:ko": "\ub454\uc0b0\ub85c", "oneway": "yes"}}, {"type": "way", "id": 674241811, "nodes": [4725249474, 12012276861, 4725249472], "tags": {"highway": "primary", "lanes": "4", "maxspeed": "60", "name": "\ub300\ub355\ub300\ub85c", "name:en": "Daedeok-daero", "name:ko": "\ub300\ub355\ub300\ub85c", "oneway": "yes", "ref": "57", "surface": "asphalt"}}, {"type": "way", "id": 674241812, "nodes": [6314357888, 4725249791, 4725249792, 318918115, 4721433404, 4725249797, 448138739, 4721433405, 277872133, 8946214857, 8946214860], "tags": {"highway": "primary", "lanes": "4", "maxspeed": "60", "name": "\ub300\ub355\ub300\ub85c", "name:en": "Daedeok-daero", "name:ko": "\ub300\ub355\ub300\ub85c", "oneway": "yes", "ref": "57", "surface": "asphalt"}}, {"type": "way", "id": 674241813, "nodes": [414675550, 11773758818, 318917900, 11999198719, 318917902, 11999198735, 6314357888], "tags": {"highway": "tertiary", "lanes": "4", "name": "\ub454\uc0b0\ub85c", "name:en": "Dunsan-ro", "name:ko": "\ub454\uc0b0\ub85c", "oneway": "yes", "surface": "asphalt"}}, {"type": "way", "id": 674242771, "nodes": [4725249471, 12012316275, 499979855], "tags": {"highway": "primary", "lanes": "4", "maxspeed": "70", "name": "\ub300\ub355\ub300\ub85c", "name:en": "Daedeok-daero", "name:ko": "\ub300\ub355\ub300\ub85c", "oneway": "yes", "ref": "57"}}, {"type": "way", "id": 674244068, "nodes": [4725249483, 4725249795, 4725249479, 4725249478, 4725249476, 318917903, 11999198734], "tags": {"highway": "primary", "lanes": "4", "maxspeed": "60", "name": "\ub300\ub355\ub300\ub85c", "name:en": "Daedeok-daero", "name:ko": "\ub300\ub355\ub300\ub85c", "oneway": "yes", "ref": "57", "surface": "asphalt"}}, {"type": "way", "id": 725784385, "nodes": [436875818, 11773758812, 4941372376, 436875817, 538801340, 4703023936, 436867735, 11773758787, 538801337, 11994626537, 436867736, 11993777792, 11993719702, 436793056], "tags": {"highway": "residential", "name": "\ub454\uc0b0\ub0a8\ub85c9\ubc88\uae38", "name:en": "Dunsannam-ro 9beon-gil", "name:ko": "\ub454\uc0b0\ub0a8\ub85c9\ubc88\uae38"}}, {"type": "way", "id": 746808941, "nodes": [6988518843, 11773758775, 11773758774, 6988518844, 6988518845, 11773758771, 11773758772, 6988518846, 6988518847, 6988518848, 11773758773, 6988518849, 6988518850, 6988518851, 6988518852, 11773714365, 6988518853, 11773714366, 11773714367, 11773714363, 11773714364, 11773714368, 11773758769, 11773758770, 6988518854, 6988518855, 6988518856, 6988518857, 6988518858, 6988518859, 6988518860, 6988518861, 6988518862, 6988518843], "tags": {"building": "school"}}, {"type": "way", "id": 753834729, "nodes": [7043170752, 7043170753, 7043170754, 7043170755, 7043170756, 7043170757, 7043170752], "tags": {"building": "yes"}}, {"type": "way", "id": 784649001, "nodes": [7330364147, 7330364148, 7330364149, 7330364150, 7330364151, 7330364147], "tags": {"building": "yes"}}, {"type": "way", "id": 784649002, "nodes": [7330364152, 7330364153, 7330364154, 7330364155, 7330364152], "tags": {"addr:city": "\ub300\uc804\uad11\uc5ed\uc2dc", "addr:district": "\uc11c\uad6c", "addr:housenumber": "15", "addr:street": "\ub454\uc0b0\ub0a8\ub85c", "building": "kindergarten"}}, {"type": "way", "id": 969447129, "nodes": [8971225580, 499979855], "tags": {"highway": "primary_link", "lanes": "2", "maxspeed": "70", "name": "\uacc4\ub8e1\ub85c", "name:en": "Gyeryong-ro", "name:ko": "\uacc4\ub8e1\ub85c", "oneway": "yes", "ref": "32", "surface": "asphalt"}}, {"type": "way", "id": 969447130, "nodes": [8971225580, 12012316276, 436793827], "tags": {"highway": "primary", "lanes": "4", "maxspeed": "70", "name": "\ub300\ub355\ub300\ub85c", "name:en": "Daedeok-daero", "name:ko": "\ub300\ub355\ub300\ub85c", "oneway": "yes", "ref": "57", "surface": "asphalt"}}, {"type": "way", "id": 969447131, "nodes": [499979855, 8971251518], "tags": {"highway": "primary", "lanes": "4", "maxspeed": "70", "name": "\ub300\ub355\ub300\ub85c", "name:en": "Daedeok-daero", "name:ko": "\ub300\ub355\ub300\ub85c", "oneway": "yes", "ref": "57", "surface": "asphalt"}}, {"type": "way", "id": 1185631431, "nodes": [11013305576, 11993626667, 12012276848, 12012276847, 11013305578, 11013305579, 11013305580], "tags": {"footway": "sidewalk", "highway": "footway"}}, {"type": "way", "id": 1238328029, "nodes": [11503255906, 11503255907, 12019761624, 12019761623, 12019761625, 12019761626, 11503255908, 11503255909, 11503255910, 11503255911, 11503255912, 11503255913, 11503255914, 11503255915, 11503255916, 11503255906], "tags": {"addr:city": "\ub300\uc804\uad11\uc5ed\uc2dc", "addr:district": "\uc11c\uad6c", "addr:housenumber": "30", "addr:postcode": "35235", "addr:street": "\ub454\uc0b0\ub0a8\ub85c", "landuse": "residential", "name": "\ub454\uc0b0\ub179\uc6d0\uc544\ud30c\ud2b8", "name:ko": "\ub454\uc0b0\ub179\uc6d0\uc544\ud30c\ud2b8", "residential": "apartments"}}, {"type": "way", "id": 1267707887, "nodes": [11773714356, 11773714357, 11773714358, 11773758776, 11773714359, 11773714360, 11994626547, 11773714361, 11773714362, 11773714356], "tags": {"addr:city": "\ub300\uc804\uad11\uc5ed\uc2dc", "addr:district": "\uc11c\uad6c", "addr:housenumber": "20", "addr:postcode": "35234", "addr:street": "\ub454\uc0b0\ub85c74\ubc88\uae38", "amenity": "school", "isced:level": "1", "name": "\ub454\uc0b0\ucd08\ub4f1\ud559\uad50", "phone": "+82 42 486 3901", "website": "https://dunsanes.djsch.kr/main.do", "wikidata": "Q18605034", "wikipedia": "ko:\ub300\uc804\ub454\uc0b0\ucd08\ub4f1\ud559\uad50"}}, {"type": "way", "id": 1267707888, "nodes": [11773758777, 11773758778, 11773758779, 11773758780, 11773758781, 11773758782, 11773758786, 11773758783, 11773758784, 11773758785, 11773758777], "tags": {"addr:city": "\ub300\uc804\uad11\uc5ed\uc2dc", "addr:district": "\uc11c\uad6c", "addr:housenumber": "15", "addr:postcode": "35234", "addr:street": "\ub454\uc0b0\ub0a8\ub85c", "landuse": "residential", "name": "\ub454\uc0b0\ub3d9\uc740\ud558\uc218\uc544\ud30c\ud2b8", "residential": "apartments"}}, {"type": "way", "id": 1288008182, "nodes": [11999198723, 4703023933, 4703023936], "tags": {"highway": "residential", "surface": "asphalt"}}, {"type": "way", "id": 1293843657, "nodes": [11993655688, 11993655689, 11993655690, 11993655691, 11993655692, 11993655693, 11993655694, 448138736, 11993655695, 436793827], "tags": {"highway": "primary_link", "oneway": "yes"}}, {"type": "way", "id": 1293843658, "nodes": [4725249471, 11993655698, 11993655705, 11993655699, 11993655700, 11993655701, 11993655702, 11993655703, 11993655704, 4850200950], "tags": {"highway": "primary_link", "oneway": "yes"}}, {"type": "way", "id": 1293851792, "nodes": [11993714421, 11993714420, 11993714433, 11993714419, 11993714407, 11993714408, 11993714416, 11993714409, 11993714410, 11994626539], "tags": {"footway": "sidewalk", "highway": "footway"}}, {"type": "way", "id": 1293851799, "nodes": [11993714434, 11993714432, 11993714422, 11993719684, 11993714423, 11993714424, 11993714425, 11993714426, 11993714427, 11993714428, 11993714429, 11993714430, 11993777772, 11993714431], "tags": {"footway": "sidewalk", "highway": "footway"}}, {"type": "way", "id": 1293851800, "nodes": [11993714435, 11993719689, 11993714436], "tags": {"crossing": "traffic_signals", "crossing:island": "no", "crossing:markings": "zebra", "footway": "crossing", "highway": "footway", "surface": "asphalt", "tactile_paving": "no", "traffic_signals:arrow": "no", "traffic_signals:countdown": "yes", "traffic_signals:minimap": "no"}}, {"type": "way", "id": 1293851801, "nodes": [11993714432, 11993714435], "tags": {"footway": "sidewalk", "highway": "footway"}}, {"type": "way", "id": 1293851802, "nodes": [11993714436, 11993714433], "tags": {"footway": "sidewalk", "highway": "footway"}}, {"type": "way", "id": 1293851803, "nodes": [11993719688, 11993719696, 538801333, 11993714437], "tags": {"crossing": "traffic_signals", "crossing:island": "no", "crossing:markings": "zebra", "footway": "crossing", "highway": "footway", "surface": "asphalt", "tactile_paving": "no", "traffic_signals:arrow": "no", "traffic_signals:countdown": "yes", "traffic_signals:minimap": "no"}}, {"type": "way", "id": 1293851804, "nodes": [11993714438, 11993714439, 11993714448, 11993714449, 11993714450, 11993714447, 11993714440, 11993714441, 11993714442, 11993714443, 11993714444, 11993714445, 11993714446], "tags": {"footway": "sidewalk", "highway": "footway"}}, {"type": "way", "id": 1293851812, "nodes": [11993719678, 11993775264, 11993719675, 11993719681, 11993719676, 11993719677], "tags": {"footway": "sidewalk", "highway": "footway"}}, {"type": "way", "id": 1293851816, "nodes": [11993714437, 11993719681], "tags": {"footway": "sidewalk", "highway": "footway"}}, {"type": "way", "id": 1293851817, "nodes": [11993719682, 11993719690, 11993719698, 11993719683], "tags": {"crossing": "traffic_signals", "crossing:island": "no", "crossing:markings": "zebra:double", "footway": "crossing", "highway": "footway", "surface": "asphalt", "tactile_paving": "no", "traffic_signals:arrow": "no", "traffic_signals:countdown": "yes", "traffic_signals:minimap": "no"}}, {"type": "way", "id": 1293851818, "nodes": [11993714442, 11993719682], "tags": {"footway": "sidewalk", "highway": "footway"}}, {"type": "way", "id": 1293851819, "nodes": [11993719683, 11993714423], "tags": {"footway": "sidewalk", "highway": "footway"}}, {"type": "way", "id": 1293851820, "nodes": [11993719692, 11993719709, 11993719705, 11993719712, 11993775263], "tags": {"crossing": "traffic_signals", "crossing:island": "no", "crossing:markings": "zebra", "footway": "crossing", "highway": "footway", "surface": "asphalt", "tactile_paving": "no", "traffic_signals:arrow": "no", "traffic_signals:countdown": "yes", "traffic_signals:minimap": "no"}}, {"type": "way", "id": 1293851821, "nodes": [11993719687, 11993719710, 11993719705, 11993719711, 11993719685], "tags": {"crossing": "traffic_signals", "crossing:island": "no", "crossing:markings": "zebra", "footway": "crossing", "highway": "footway", "surface": "asphalt", "tactile_paving": "no", "traffic_signals:arrow": "no", "traffic_signals:countdown": "yes", "traffic_signals:minimap": "no"}}, {"type": "way", "id": 1293851822, "nodes": [11993719685, 11993714442], "tags": {"footway": "sidewalk", "highway": "footway"}}, {"type": "way", "id": 1293851823, "nodes": [11993719686, 11993719691, 11993719716, 11993775230], "tags": {"crossing": "traffic_signals", "crossing:island": "no", "crossing:markings": "zebra", "footway": "crossing", "highway": "footway", "surface": "asphalt", "tactile_paving": "no", "traffic_signals:arrow": "no", "traffic_signals:countdown": "yes", "traffic_signals:minimap": "no"}}, {"type": "way", "id": 1293851824, "nodes": [11993714442, 11993719686], "tags": {"footway": "sidewalk", "highway": "footway"}}, {"type": "way", "id": 1293851825, "nodes": [11993714419, 11993719687], "tags": {"footway": "sidewalk", "highway": "footway"}}, {"type": "way", "id": 1293851826, "nodes": [11993714407, 11993719688], "tags": {"footway": "sidewalk", "highway": "footway"}}, {"type": "way", "id": 1293851827, "nodes": [11993719684, 11993719692], "tags": {"footway": "sidewalk", "highway": "footway"}}, {"type": "way", "id": 1293851829, "nodes": [11994626507, 11993719693, 11993719694, 11993719695, 11993719714, 11993719696, 11993719710, 11993719697, 11993719709, 11993719698, 11993719699, 11993719700, 11993719701, 11993775265, 11993719702, 11993719703, 12030566135, 11993719704], "tags": {"highway": "tertiary", "lanes": "2", "name": "\ub454\uc0b0\ub0a8\ub85c", "name:en": "Dunsannam-ro", "name:ko": "\ub454\uc0b0\ub0a8\ub85c", "oneway": "yes"}}, {"type": "way", "id": 1293851832, "nodes": [11993719713, 11993719691, 11993719717, 6290325579], "tags": {"highway": "service", "noname": "yes", "oneway": "yes"}}, {"type": "way", "id": 1293851833, "nodes": [6290325579, 11993719718, 11993719716, 11993719713], "tags": {"highway": "service", "noname": "yes", "oneway": "yes"}}, {"type": "way", "id": 1293851834, "nodes": [11993719697, 11993719705, 11993719713], "tags": {"highway": "residential", "oneway": "no"}}, {"type": "way", "id": 1293859919, "nodes": [11993775230, 11993719681], "tags": {"footway": "sidewalk", "highway": "footway"}}, {"type": "way", "id": 1293859920, "nodes": [11993775263, 11993719681], "tags": {"footway": "sidewalk", "highway": "footway"}}, {"type": "way", "id": 1293859925, "nodes": [11993777788, 11993777778, 11993777779, 11993777780, 11993777781, 11993777782, 11993777783, 11993777784, 11993777785, 11993777802, 11993777786], "tags": {"footway": "sidewalk", "highway": "footway"}}, {"type": "way", "id": 1293948317, "nodes": [11994626538, 11993714465, 11993714466, 11993714467, 11993714421], "tags": {"footway": "sidewalk", "highway": "footway"}}, {"type": "way", "id": 1293948323, "nodes": [11994626567, 11999198716, 11999198686, 11994632672, 11994632673, 11994632675, 11994632676, 11994632674], "tags": {"footway": "sidewalk", "highway": "footway"}}, {"type": "way", "id": 1294765689, "nodes": [11999198737, 11999198684, 11999198681, 11999198691, 11999198682, 11999948624, 11999198683, 11999198740], "tags": {"footway": "sidewalk", "highway": "footway"}}, {"type": "way", "id": 1294765698, "nodes": [11999198696, 11999198698, 11999198697], "tags": {"bicycle": "designated", "crossing": "uncontrolled", "crossing:island": "no", "crossing:markings": "zebra", "footway": "crossing", "highway": "footway", "surface": "asphalt", "tactile_paving": "no"}}, {"type": "way", "id": 1294765699, "nodes": [11999198681, 11999198696], "tags": {"footway": "sidewalk", "highway": "footway"}}, {"type": "way", "id": 1294765700, "nodes": [11999198697, 11999198695], "tags": {"footway": "sidewalk", "highway": "footway"}}, {"type": "way", "id": 1294765701, "nodes": [11999198700, 11999198712, 11999198701], "tags": {"bicycle": "designated", "crossing": "uncontrolled", "crossing:island": "no", "crossing:markings": "zebra", "footway": "crossing", "highway": "footway", "surface": "asphalt", "tactile_paving": "no"}}, {"type": "way", "id": 1294765702, "nodes": [11999198684, 11999198700], "tags": {"footway": "sidewalk", "highway": "footway"}}, {"type": "way", "id": 1294765703, "nodes": [11999198701, 11999198699], "tags": {"footway": "sidewalk", "highway": "footway"}}, {"type": "way", "id": 1294765704, "nodes": [11999198709, 11999198711, 11999198708], "tags": {"bicycle": "designated", "crossing": "uncontrolled", "crossing:island": "no", "crossing:markings": "zebra", "footway": "crossing", "highway": "footway", "surface": "asphalt", "tactile_paving": "no"}}, {"type": "way", "id": 1294765705, "nodes": [11999198707, 11999198710, 11999198706], "tags": {"bicycle": "designated", "crossing": "uncontrolled", "crossing:island": "no", "crossing:markings": "zebra", "footway": "crossing", "highway": "footway", "surface": "asphalt", "tactile_paving": "no"}}, {"type": "way", "id": 1294765706, "nodes": [11999198706, 11999198695], "tags": {"footway": "sidewalk", "highway": "footway"}}, {"type": "way", "id": 1294765707, "nodes": [11999198704, 11999198707], "tags": {"footway": "sidewalk", "highway": "footway"}}, {"type": "way", "id": 1294765708, "nodes": [11999198708, 11999198703], "tags": {"footway": "sidewalk", "highway": "footway"}}, {"type": "way", "id": 1294765709, "nodes": [11999198699, 11999198709], "tags": {"footway": "sidewalk", "highway": "footway"}}, {"type": "way", "id": 1294765722, "nodes": [414674773, 11999198722, 11999198723, 11999198725, 11999198724, 11999198726, 11999198721], "tags": {"highway": "tertiary", "lanes": "4", "name": "\ub454\uc0b0\ub85c", "name:en": "Dunsan-ro", "name:ko": "\ub454\uc0b0\ub85c", "oneway": "yes", "surface": "asphalt"}}, {"type": "way", "id": 1294765723, "nodes": [12035041615, 12035041616, 4721404887, 11999198736, 11999198732, 11999198733, 4725249474], "tags": {"highway": "tertiary", "lanes": "4", "name": "\ub454\uc0b0\ub85c", "name:en": "Dunsan-ro", "name:ko": "\ub454\uc0b0\ub85c", "oneway": "yes", "surface": "asphalt"}}, {"type": "way", "id": 1294765724, "nodes": [6314357888, 11999198734], "tags": {"highway": "tertiary", "lanes": "4", "name": "\ub454\uc0b0\ub85c", "name:en": "Dunsan-ro", "name:ko": "\ub454\uc0b0\ub85c", "oneway": "yes"}}, {"type": "way", "id": 1294765725, "nodes": [11999198734, 4725249474], "tags": {"highway": "primary", "lanes": "4", "maxspeed": "60", "name": "\ub300\ub355\ub300\ub85c", "name:en": "Daedeok-daero", "name:ko": "\ub300\ub355\ub300\ub85c", "oneway": "yes", "ref": "57", "surface": "asphalt"}}, {"type": "way", "id": 1294765726, "nodes": [11999198741, 11999198673, 11999198674, 11999198687, 11999198675, 11999198676, 11999198677, 11999198678, 11999198679, 11999198680, 11999198738], "tags": {"footway": "sidewalk", "highway": "footway"}}, {"type": "way", "id": 1294765727, "nodes": [11999198738, 11999198739, 11999198737], "tags": {"bicycle": "designated", "crossing": "uncontrolled", "crossing:island": "no", "crossing:markings": "zebra", "footway": "crossing", "highway": "footway", "surface": "asphalt", "tactile_paving": "no"}}, {"type": "way", "id": 1294765734, "nodes": [11999198764, 11999198743, 11999198744, 11999198692, 11999198745, 11999198695, 11999198747, 11999198748], "tags": {"footway": "sidewalk", "highway": "footway"}}, {"type": "way", "id": 1294917856, "nodes": [12000337168, 12000348585, 12000348569, 12000348570, 12000348571, 12000348572, 12000348573, 12000348574, 11999198704, 11999198703, 12000348575, 12000348576, 12000348577, 12000348578, 12000348584, 12000348579, 12000348583, 12000348580, 12000348581, 12000348582, 12000337168], "tags": {"footway": "sidewalk", "highway": "footway"}}, {"type": "way", "id": 1294917859, "nodes": [12000348612, 12000348588, 12000348589, 12000348590, 12000348593, 12000348596, 12000348595, 12000348594, 12000348591, 12000348592, 12000348586, 11999198699, 12000348587, 12000348610], "tags": {"footway": "sidewalk", "highway": "footway"}}, {"type": "way", "id": 1294917860, "nodes": [12000348608, 12000348611, 12000348607], "tags": {"highway": "service", "oneway": "yes"}}, {"type": "way", "id": 1294917862, "nodes": [12000348609, 12000348611, 12000348610], "tags": {"crossing": "unmarked", "crossing:island": "no", "crossing:markings": "no", "footway": "crossing", "highway": "footway", "surface": "asphalt", "tactile_paving": "no"}}, {"type": "way", "id": 1294917863, "nodes": [12000348609, 12000348614, 12000348613], "tags": {"footway": "sidewalk", "highway": "footway"}}, {"type": "way", "id": 1294917864, "nodes": [12000348612, 12000348615, 12000348613], "tags": {"crossing": "unmarked", "crossing:island": "no", "crossing:markings": "no", "footway": "crossing", "highway": "footway", "surface": "paving_stones", "tactile_paving": "no"}}, {"type": "way", "id": 1294917865, "nodes": [12000348616, 12000348615, 12000348617], "tags": {"highway": "service"}}, {"type": "way", "id": 1294917866, "nodes": [12000348618, 12000348588], "tags": {"footway": "sidewalk", "highway": "footway"}}, {"type": "way", "id": 1294917867, "nodes": [12000348619, 11999198679], "tags": {"footway": "sidewalk", "highway": "footway"}}, {"type": "way", "id": 1294917868, "nodes": [12000348618, 12000348620, 12000348619], "tags": {"bicycle": "designated", "crossing": "uncontrolled", "crossing:island": "no", "crossing:markings": "zebra", "footway": "crossing", "highway": "footway", "surface": "asphalt", "tactile_paving": "no"}}, {"type": "way", "id": 1294917869, "nodes": [4634800333, 12000348625, 12000348626, 12000348627, 12000348704, 12000348628, 12000348629, 12000348630, 12000348631, 12000348632, 12000348633], "tags": {"highway": "residential", "name": "\ub454\uc0b0\ub85c31\ubc88\uae38", "name:en": "Dunsan-ro 31beon-gil", "name:ko": "\ub454\uc0b0\ub85c31\ubc88\uae38", "oneway": "yes"}}, {"type": "way", "id": 1294917870, "nodes": [12000348636, 12000348637, 12000348638, 12000348639, 12000348640, 12000348641, 12000348642, 12000348643, 12000348644, 12000348645, 12000348646, 12000348647, 12000348660, 12000348648, 12000348649, 12000348650, 12000348651, 12000348652, 12000348653, 12000348654, 12000348655], "tags": {"footway": "sidewalk", "highway": "footway"}}, {"type": "way", "id": 1294917873, "nodes": [12000348662, 12000348663, 12000348664, 12000348665, 12000348666, 12000348661, 12000348667, 12000348668, 12000348669, 12000348670, 12000348671, 12000348672, 12000348700, 12000348673, 12000348674, 12000348698, 12000348675], "tags": {"footway": "sidewalk", "highway": "footway"}}, {"type": "way", "id": 1294917880, "nodes": [12000348705, 12000348659], "tags": {"footway": "sidewalk", "highway": "footway"}}, {"type": "way", "id": 1294917882, "nodes": [12000348626, 12000348708], "tags": {"highway": "service", "oneway": "yes"}}, {"type": "way", "id": 1296313353, "nodes": [499979855, 12012316269, 4850200950], "tags": {"highway": "primary_link", "lanes": "2", "maxspeed": "70", "name": "\uacc4\ub8e1\ub85c", "name:en": "Gyeryong-ro", "name:ko": "\uacc4\ub8e1\ub85c", "oneway": "yes", "ref": "32"}}, {"type": "way", "id": 1296347557, "nodes": [11013305576, 12012276849, 12012276850], "tags": {"bicycle": "designated", "crossing": "uncontrolled", "crossing:island": "no", "crossing:markings": "zebra", "footway": "crossing", "highway": "footway", "surface": "asphalt", "tactile_paving": "no"}}, {"type": "way", "id": 1296347558, "nodes": [12012276859, 4725249473, 12770809674, 12012276851, 12012276852, 12012276853, 12012276854, 12012276862], "tags": {"bicycle": "designated", "footway": "sidewalk", "highway": "footway"}}, {"type": "way", "id": 1296347559, "nodes": [12012276850, 12012316282, 12012316291, 12012276858], "tags": {"bicycle": "designated", "footway": "sidewalk", "highway": "footway"}}, {"type": "way", "id": 1296347560, "nodes": [12012276858, 12012276860, 12012276859], "tags": {"bicycle": "designated", "crossing": "uncontrolled", "crossing:island": "no", "crossing:markings": "zebra", "footway": "crossing", "highway": "footway", "surface": "asphalt", "tactile_paving": "no"}}, {"type": "way", "id": 1296347561, "nodes": [12012276862, 12012276855, 12012276856, 12012276857, 12012316327], "tags": {"footway": "sidewalk", "highway": "footway"}}, {"type": "way", "id": 1296347562, "nodes": [12012276863, 11993655701, 12012276864], "tags": {"bicycle": "designated", "crossing": "uncontrolled", "crossing:island": "no", "crossing:markings": "zebra:double", "footway": "crossing", "highway": "footway", "surface": "asphalt", "tactile_paving": "no", "traffic_calming": "table"}}, {"type": "way", "id": 1296347563, "nodes": [12012276864, 11993626667], "tags": {"footway": "sidewalk", "highway": "footway"}}, {"type": "way", "id": 1296347564, "nodes": [12012276865, 12012276868, 12012276866, 12012316269, 12012276867], "tags": {"bicycle": "designated", "crossing": "traffic_signals", "crossing:island": "no", "crossing:markings": "zebra:double", "footway": "crossing", "highway": "footway", "surface": "asphalt", "tactile_paving": "no", "traffic_signals:arrow": "no", "traffic_signals:countdown": "yes", "traffic_signals:minimap": "no"}}, {"type": "way", "id": 1296347566, "nodes": [12012316274, 12012316275, 12012316276, 12012316277], "tags": {"bicycle": "designated", "crossing": "traffic_signals", "crossing:island": "no", "crossing:markings": "zebra:double", "footway": "crossing", "highway": "footway", "surface": "asphalt", "tactile_paving": "no", "traffic_signals:arrow": "no", "traffic_signals:countdown": "yes", "traffic_signals:minimap": "no"}}, {"type": "way", "id": 1296347568, "nodes": [12012316282, 12012316283, 12012316284, 12012316285, 12012316286, 12012316287, 12012316288, 12012316289, 12012316292, 12012316293, 12012316290, 12012316291], "tags": {"footway": "sidewalk", "highway": "footway"}}, {"type": "way", "id": 1296347577, "nodes": [12012276863, 12012316301], "tags": {"footway": "traffic_island", "highway": "footway"}}, {"type": "way", "id": 1296347578, "nodes": [12012316274, 12012316301], "tags": {"footway": "traffic_island", "highway": "footway"}}, {"type": "way", "id": 1296347579, "nodes": [12012276867, 12012316301], "tags": {"footway": "traffic_island", "highway": "footway"}}, {"type": "way", "id": 1296347581, "nodes": [12012316277, 12012316302], "tags": {"footway": "traffic_island", "highway": "footway"}}, {"type": "way", "id": 1296389932, "nodes": [414674773, 6314357888], "tags": {"highway": "primary", "lanes": "4", "maxspeed": "60", "name": "\ub300\ub355\ub300\ub85c", "name:en": "Daedeok-daero", "name:ko": "\ub300\ub355\ub300\ub85c", "oneway": "yes", "ref": "57", "surface": "asphalt"}}, {"type": "way", "id": 1298121962, "nodes": [4941426970, 4941426962], "tags": {"highway": "service", "service": "parking_aisle", "surface": "asphalt"}}, {"type": "way", "id": 1298711898, "nodes": [11993719703, 11993777789, 11993655706, 448138736], "tags": {"highway": "residential", "name": "\ub300\ub355\ub300\ub85c176\ubc88\uae38", "name:en": "Daedeok-daero 176beon-gil", "name:ko": "\ub300\ub355\ub300\ub85c176\ubc88\uae38", "surface": "asphalt"}}]}